40.53641002202607,-74.1642640198284,Address,"Street number",Street,City,State,Country,Zip,"Address components"
40.57508066330278,-73.98990282163668,"2940-2946 W 23rd St, Brooklyn, NY 11224, USA",2940-2946,"West 23rd Street",,"New York","United States",11224,"2940-2946, West 23rd Street, Coney Island, Brooklyn, Kings County, New York, United States, 11224, 2202"
40.57508066330278,-73.98990282163668,"2940-2946 W 23rd St, Brooklyn, NY 11224, USA",2940-2946,"West 23rd Street",,"New York","United States",11224,"2940-2946, West 23rd Street, Coney Island, Brooklyn, Kings County, New York, United States, 11224, 2202"
40.73981721878473,-73.76143107078653,"212-17-212-19 73rd Ave, Oakland Gardens, NY 11364, USA",212-17-212-19,"73rd Avenue",,"New York","United States",11364,"212-17-212-19, 73rd Avenue, Oakland Gardens, Queens, Queens County, New York, United States, 11364"
40.73981721878473,-73.76143107078653,"212-17-212-19 73rd Ave, Oakland Gardens, NY 11364, USA",212-17-212-19,"73rd Avenue",,"New York","United States",11364,"212-17-212-19, 73rd Avenue, Oakland Gardens, Queens, Queens County, New York, United States, 11364"
40.57866337979219,-73.9763198564112,"2906-2922 Police Officer Harry Ryman Place, Brooklyn, NY 11224, USA",2906-2922,"Police Officer Harry Ryman Place",,"New York","United States",11224,"2906-2922, Police Officer Harry Ryman Place, Coney Island, Brooklyn, Kings County, New York, United States, 11224"
40.74865816981161,-73.87430992249031,"92-5-92-7 Roosevelt Ave, Jackson Heights, NY 11372, USA",92-5-92-7,"Roosevelt Avenue",,"New York","United States",11372,"92-5-92-7, Roosevelt Avenue, Jackson Heights, Queens, Queens County, New York, United States, 11372"
40.87086264581626,-73.89161879975958,"2832-2850 Creston Ave, Bronx, NY 10468, USA",2832-2850,"Creston Avenue",,"New York","United States",10468,"2832-2850, Creston Avenue, West Bronx, Bronx, Bronx County, New York, United States, 10468"
40.87086264581626,-73.89161879975958,"2832-2850 Creston Ave, Bronx, NY 10468, USA",2832-2850,"Creston Avenue",,"New York","United States",10468,"2832-2850, Creston Avenue, West Bronx, Bronx, Bronx County, New York, United States, 10468"
40.74166005126576,-73.98014489354158,"208 E 28th St, New York, NY 10016, USA",208,"East 28th Street","New York","New York","United States",10016,"208, East 28th Street, Midtown, Manhattan, New York, New York County, New York, United States, 10016"
40.74166005126576,-73.98014489354158,"208 E 28th St, New York, NY 10016, USA",208,"East 28th Street","New York","New York","United States",10016,"208, East 28th Street, Midtown, Manhattan, New York, New York County, New York, United States, 10016"
40.8342565355683,-73.90403378099644,"3663 Third Ave, Bronx, NY 10456, USA",3663,"Third Avenue",,"New York","United States",10456,"3663, Third Avenue, West Bronx, Bronx, Bronx County, New York, United States, 10456"
40.83480623167973,-73.90494365599744,"1379-1385 Washington Ave, Bronx, NY 10456, USA",1379-1385,"Washington Avenue",,"New York","United States",10456,"1379-1385, Washington Avenue, West Bronx, Bronx, Bronx County, New York, United States, 10456"
40.78863601016924,-73.9397895694337,"411-417 E 105th St, New York, NY 10029, USA",411-417,"East 105th Street","New York","New York","United States",10029,"411-417, East 105th Street, Upper Manhattan, Manhattan, New York, New York County, New York, United States, 10029"
40.85887059082775,-73.89112500233163,"478 E 188th St, Bronx, NY 10458, USA",478,"East 188th Street",,"New York","United States",10458,"478, East 188th Street, West Bronx, Bronx, Bronx County, New York, United States, 10458"
40.65451208928747,-73.83291878378371,"162-16-162-18 99th St, Howard Beach, NY 11414, USA",162-16-162-18,"99th Street",,"New York","United States",11414,"162-16-162-18, 99th Street, Howard Beach, Queens, Queens County, New York, United States, 11414, 4024"
40.65451208928747,-73.83291878378371,"162-16-162-18 99th St, Howard Beach, NY 11414, USA",162-16-162-18,"99th Street",,"New York","United States",11414,"162-16-162-18, 99th Street, Howard Beach, Queens, Queens County, New York, United States, 11414, 4024"
40.65451208928747,-73.83291878378371,"162-16-162-18 99th St, Howard Beach, NY 11414, USA",162-16-162-18,"99th Street",,"New York","United States",11414,"162-16-162-18, 99th Street, Howard Beach, Queens, Queens County, New York, United States, 11414, 4024"
40.716976812940224,-73.98228781011082,"87 Delancey St, New York, NY 10002, USA",87,"Delancey Street","New York","New York","United States",10002,"87, Delancey Street, Lower Manhattan, Manhattan, New York, New York County, New York, United States, 10002"
40.665686504084405,-73.82042967783265,"121-1 NY-27, South Ozone Park, NY 11420, USA",121-1,"North Conduit Avenue",,"New York","United States",11420,"121-1, North Conduit Avenue, South Ozone Park, Queens, Queens County, New York, United States, 11420"
40.65451208928747,-73.83291878378371,"162-16-162-18 99th St, Howard Beach, NY 11414, USA",162-16-162-18,"99th Street",,"New York","United States",11414,"162-16-162-18, 99th Street, Howard Beach, Queens, Queens County, New York, United States, 11414, 4024"
40.65451208928747,-73.83291878378371,"162-16-162-18 99th St, Howard Beach, NY 11414, USA",162-16-162-18,"99th Street",,"New York","United States",11414,"162-16-162-18, 99th Street, Howard Beach, Queens, Queens County, New York, United States, 11414, 4024"
40.64502905554918,-73.91997749142436,"Clarendon Rd, Brooklyn, NY 11236, USA",,"Clarendon Road",,"New York","United States",11236,"Clarendon Road, East Flatbush, Brooklyn, Kings County, New York, United States, 11236"
40.64502905554918,-73.91997749142436,"Clarendon Rd, Brooklyn, NY 11236, USA",,"Clarendon Road",,"New York","United States",11236,"Clarendon Road, East Flatbush, Brooklyn, Kings County, New York, United States, 11236"
40.65514463603378,-73.91757949073228,"492-498 E 94th St, Brooklyn, NY 11212, USA",492-498,"East 94th Street",,"New York","United States",11212,"492-498, East 94th Street, East Flatbush, Brooklyn, Kings County, New York, United States, 11212"
40.67230027932584,-73.84210292069046,"136-98 94th St, Ozone Park, NY 11417, USA",136-98,"94th Street",,"New York","United States",11417,"136-98, 94th Street, Ozone Park, Queens, Queens County, New York, United States, 11417, 2810"
40.82050486349213,-73.88809505653042,"1172 Garrison Ave, Bronx, NY 10474, USA",1172,"Garrison Avenue",,"New York","United States",10474,"1172, Garrison Avenue, West Bronx, Bronx, Bronx County, New York, United States, 10474"
40.65514463603378,-73.91757949073228,"492-498 E 94th St, Brooklyn, NY 11212, USA",492-498,"East 94th Street",,"New York","United States",11212,"492-498, East 94th Street, East Flatbush, Brooklyn, Kings County, New York, United States, 11212"
40.76354168294979,-73.77166681129103,"213-3-213-9 41st Ave, Bayside, NY 11361, USA",213-3-213-9,"41st Avenue",,"New York","United States",11361,"213-3-213-9, 41st Avenue, Bayside, Queens, Queens County, New York, United States, 11361"
40.76354168294979,-73.77166681129103,"213-3-213-9 41st Ave, Bayside, NY 11361, USA",213-3-213-9,"41st Avenue",,"New York","United States",11361,"213-3-213-9, 41st Avenue, Bayside, Queens, Queens County, New York, United States, 11361"
40.76354168294979,-73.77166681129103,"213-3-213-9 41st Ave, Bayside, NY 11361, USA",213-3-213-9,"41st Avenue",,"New York","United States",11361,"213-3-213-9, 41st Avenue, Bayside, Queens, Queens County, New York, United States, 11361"
40.8810437684623,-73.8271529090922,"3311-3315 De Lavall Ave, Bronx, NY 10475, USA",3311-3315,"De Lavall Avenue",,"New York","United States",10475,"3311-3315, De Lavall Avenue, East Bronx, Bronx, Bronx County, New York, United States, 10475, 1301"
40.882544828380844,-73.82696095576036,"2274 Tillotson Ave, Bronx, NY 10475, USA",2274,"Tillotson Avenue",,"New York","United States",10475,"2274, Tillotson Avenue, East Bronx, Bronx, Bronx County, New York, United States, 10475"
40.702595231567294,-73.85529262689504,"61-1 Myrtle Ave, Ridgewood, NY 11385, USA",61-1,"Myrtle Avenue",,"New York","United States",11385,"61-1, Myrtle Avenue, Ridgewood, Queens, Queens County, New York, United States, 11385"
40.664024409013805,-73.83790162612962,"95-27 156th Ave, Howard Beach, NY 11414, USA",95-27,"156th Avenue",,"New York","United States",11414,"95-27, 156th Avenue, Howard Beach, Queens, Queens County, New York, United States, 11414"
40.664024409013805,-73.83790162612962,"95-27 156th Ave, Howard Beach, NY 11414, USA",95-27,"156th Avenue",,"New York","United States",11414,"95-27, 156th Avenue, Howard Beach, Queens, Queens County, New York, United States, 11414"
40.67859101625374,-73.89462443430092,"31 Wyona St, Brooklyn, NY 11207, USA",31,"Wyona Street",,"New York","United States",11207,"31, Wyona Street, Cypress Hills, Brooklyn, Kings County, New York, United States, 11207, 2515"
40.82382360454341,-73.94021660219755,"234 W 147th St, New York, NY 10039, USA",234,"West 147th Street","New York","New York","United States",10039,"234, West 147th Street, Upper Manhattan, Manhattan, New York, New York County, New York, United States, 10039"
40.81337036891753,-73.94883119606541,"2424 Frederick Douglass Blvd, New York, NY 10027, USA",2424,"Frederick Douglass Boulevard","New York","New York","United States",10027,"2424, Frederick Douglass Boulevard, Upper Manhattan, Manhattan, New York, New York County, New York, United States, 10027"
40.81337036891753,-73.94883119606541,"2424 Frederick Douglass Blvd, New York, NY 10027, USA",2424,"Frederick Douglass Boulevard","New York","New York","United States",10027,"2424, Frederick Douglass Boulevard, Upper Manhattan, Manhattan, New York, New York County, New York, United States, 10027"
40.806766282664675,-73.93715790853098,"106 E 128th St, New York, NY 10035, USA",106,"East 128th Street","New York","New York","United States",10035,"106, East 128th Street, Upper Manhattan, Manhattan, New York, New York County, New York, United States, 10035"
40.806766282664675,-73.93715790853098,"106 E 128th St, New York, NY 10035, USA",106,"East 128th Street","New York","New York","United States",10035,"106, East 128th Street, Upper Manhattan, Manhattan, New York, New York County, New York, United States, 10035"
40.66796277188801,-73.92565264590124,"305-327 Buffalo Ave, Brooklyn, NY 11213, USA",305-327,"Buffalo Avenue",,"New York","United States",11213,"305-327, Buffalo Avenue, Crown Heights, Brooklyn, Kings County, New York, United States, 11213"
40.78017273976576,-73.9550925495991,"120 E 87th St, New York, NY 10128, USA",120,"East 87th Street","New York","New York","United States",10128,"120, East 87th Street, Upper East Side, Manhattan, New York, New York County, New York, United States, 10128"
40.65116857462548,-73.94189212502394,"3801 Bob Marley Blvd, Brooklyn, NY 11203, USA",3801,"Bob Marley Boulevard",,"New York","United States",11203,"3801, Bob Marley Boulevard, East Flatbush, Brooklyn, Kings County, New York, United States, 11203, 2906"
40.721210593951604,-74.0003607599787,"471 Broadway, New York, NY 10013, USA",471,Broadway,"New York","New York","United States",10013,"471, Broadway, Lower Manhattan, Manhattan, New York, New York County, New York, United States, 10013, 2664"
40.71973665437394,-74.0010281432011,"36-38 Howard St, New York, NY 10013, USA",36-38,"Howard Street","New York","New York","United States",10013,"36-38, Howard Street, Lower Manhattan, Manhattan, New York, New York County, New York, United States, 10013"
40.71973665437394,-74.0010281432011,"36-38 Howard St, New York, NY 10013, USA",36-38,"Howard Street","New York","New York","United States",10013,"36-38, Howard Street, Lower Manhattan, Manhattan, New York, New York County, New York, United States, 10013"
40.71973665437394,-74.0010281432011,"36-38 Howard St, New York, NY 10013, USA",36-38,"Howard Street","New York","New York","United States",10013,"36-38, Howard Street, Lower Manhattan, Manhattan, New York, New York County, New York, United States, 10013"
40.61116967224346,-74.08708798568505,"78 Rhine Ave, Staten Island, NY 10304, USA",78,"Rhine Avenue",,"New York","United States",10304,"78, Rhine Avenue, Park Hill, Staten Island, Richmond County, New York, United States, 10304, 3406"
40.66903923351602,-73.86568231643471,"2661 Linden Blvd, Brooklyn, NY 11208, USA",2661,"Linden Boulevard",,"New York","United States",11208,"2661, Linden Boulevard, East New York, Brooklyn, Kings County, New York, United States, 11208"
40.71459315656465,-73.93875624682865,"907 Metropolitan Ave, Brooklyn, NY 11211, USA",907,"Metropolitan Avenue",,"New York","United States",11211,"907, Metropolitan Avenue, East Williamsburg, Brooklyn, Kings County, New York, United States, 11211"
40.679906929379975,-74.00989312264896,"259 Van Brunt St, Brooklyn, NY 11231, USA",259,"Van Brunt Street",,"New York","United States",11231,"259, Van Brunt Street, Red Hook, Brooklyn, Kings County, New York, United States, 11231, 1278"
40.84772175040163,-73.90363483612138,"1853-1857 Anthony Ave, Bronx, NY 10457, USA",1853-1857,"Anthony Avenue",,"New York","United States",10457,"1853-1857, Anthony Avenue, West Bronx, Bronx, Bronx County, New York, United States, 10457"
40.84772175040163,-73.90363483612138,"1853-1857 Anthony Ave, Bronx, NY 10457, USA",1853-1857,"Anthony Avenue",,"New York","United States",10457,"1853-1857, Anthony Avenue, West Bronx, Bronx, Bronx County, New York, United States, 10457"
40.690983831432455,-73.77870533892059,"114-28-114-32 Merrick Blvd, Jamaica, NY 11434, USA",114-28-114-32,"Merrick Boulevard",,"New York","United States",11434,"114-28-114-32, Merrick Boulevard, Jamaica, Queens, Queens County, New York, United States, 11434"
40.860278595386305,-73.89404373540852,"360 E 188th St, Bronx, NY 10458, USA",360,"East 188th Street",,"New York","United States",10458,"360, East 188th Street, West Bronx, Bronx, Bronx County, New York, United States, 10458, 5549"
40.737157612381054,-73.87940512126264,"5153-5165 Van Loon St, Elmhurst, NY 11373, USA",5153-5165,"Van Loon Street",,"New York","United States",11373,"5153-5165, Van Loon Street, Elmhurst, Queens, Queens County, New York, United States, 11373"
40.875179058457384,-73.8670449519396,"3399 White Plains Rd, Bronx, NY 10467, USA",3399,"White Plains Road",,"New York","United States",10467,"3399, White Plains Road, East Bronx, Bronx, Bronx County, New York, United States, 10467"
40.82519205149975,-73.91628489468451,"3186-3198 Park Ave, Bronx, NY 10451, USA",3186-3198,"Park Avenue",,"New York","United States",10451,"3186-3198, Park Avenue, West Bronx, Bronx, Bronx County, New York, United States, 10451, 4068"
40.83940396854068,-73.93762219805092,"500A W 167th St, New York, NY 10032, USA",500A,"West 167th Street","New York","New York","United States",10032,"500A, West 167th Street, Upper Manhattan, Manhattan, New York, New York County, New York, United States, 10032"
40.83940396854068,-73.93762219805092,"500A W 167th St, New York, NY 10032, USA",500A,"West 167th Street","New York","New York","United States",10032,"500A, West 167th Street, Upper Manhattan, Manhattan, New York, New York County, New York, United States, 10032"
40.83940396854068,-73.93762219805092,"500A W 167th St, New York, NY 10032, USA",500A,"West 167th Street","New York","New York","United States",10032,"500A, West 167th Street, Upper Manhattan, Manhattan, New York, New York County, New York, United States, 10032"
40.84801834937729,-73.94043702717887,"12 Pinehurst Ave, New York, NY 10033, USA",12,"Pinehurst Avenue","New York","New York","United States",10033,"12, Pinehurst Avenue, Upper Manhattan, Manhattan, New York, New York County, New York, United States, 10033"
40.64644248632906,-74.01100526342886,"435-437 49th St, Brooklyn, NY 11220, USA",435-437,"49th Street",,"New York","United States",11220,"435-437, 49th Street, Sunset Park, Brooklyn, Kings County, New York, United States, 11220"
40.71940726920293,-73.742384290842,"93-20-93-22 215th St, Queens Village, NY 11428, USA",93-20-93-22,"215th Street",,"New York","United States",11428,"93-20-93-22, 215th Street, Queens Village, Queens, Queens County, New York, United States, 11428, 1708"
40.71940726920293,-73.742384290842,"93-20-93-22 215th St, Queens Village, NY 11428, USA",93-20-93-22,"215th Street",,"New York","United States",11428,"93-20-93-22, 215th Street, Queens Village, Queens, Queens County, New York, United States, 11428, 1708"
40.701588305485274,-73.74864199357388,"20598 Murdock Ave, St. Albans, NY 11412, USA",20598,"Murdock Avenue",,"New York","United States",11412,"20598, Murdock Avenue, St. Albans, Queens, Queens County, New York, United States, 11412"
40.65889981979403,-73.84178863229043,"159-0 91st St, Howard Beach, NY 11414, USA",159-0,"91st Street",,"New York","United States",11414,"159-0, 91st Street, Howard Beach, Queens, Queens County, New York, United States, 11414, 3118"
40.68999899098287,-73.9274851198743,"64-66 Patchen Ave, Brooklyn, NY 11221, USA",64-66,"Patchen Avenue",,"New York","United States",11221,"64-66, Patchen Avenue, Bedford-Stuyvesant, Brooklyn, Kings County, New York, United States, 11221"
40.68999899098287,-73.9274851198743,"64-66 Patchen Ave, Brooklyn, NY 11221, USA",64-66,"Patchen Avenue",,"New York","United States",11221,"64-66, Patchen Avenue, Bedford-Stuyvesant, Brooklyn, Kings County, New York, United States, 11221"
40.68999899098287,-73.9274851198743,"64-66 Patchen Ave, Brooklyn, NY 11221, USA",64-66,"Patchen Avenue",,"New York","United States",11221,"64-66, Patchen Avenue, Bedford-Stuyvesant, Brooklyn, Kings County, New York, United States, 11221"
40.520902680166984,-74.20470067776368,"196 Bayview Ave, Staten Island, NY 10309, USA",196,"Bayview Avenue",,"New York","United States",10309,"196, Bayview Avenue, Prince's Bay, Staten Island, Richmond County, New York, United States, 10309, 3606"
40.72062585106628,-73.99497105001717,"158 Elizabeth St, New York, NY 10012, USA",158,"Elizabeth Street","New York","New York","United States",10012,"158, Elizabeth Street, Lower Manhattan, Manhattan, New York, New York County, New York, United States, 10012, 4603"
40.72062585106628,-73.99497105001717,"158 Elizabeth St, New York, NY 10012, USA",158,"Elizabeth Street","New York","New York","United States",10012,"158, Elizabeth Street, Lower Manhattan, Manhattan, New York, New York County, New York, United States, 10012, 4603"
40.71320300050222,-73.98387957333794,"36 Gouverneur St, New York, NY 10002, USA",36,"Gouverneur Street","New York","New York","United States",10002,"36, Gouverneur Street, Lower East Side, Manhattan, New York, New York County, New York, United States, 10002"
40.71320300050222,-73.98387957333794,"36 Gouverneur St, New York, NY 10002, USA",36,"Gouverneur Street","New York","New York","United States",10002,"36, Gouverneur Street, Lower East Side, Manhattan, New York, New York County, New York, United States, 10002"
40.81469181945966,-73.92170626784082,"327 E 145th St, Bronx, NY 10451, USA",327,"East 145th Street",,"New York","United States",10451,"327, East 145th Street, West Bronx, Bronx, Bronx County, New York, United States, 10451"
40.83554175657315,-73.81804507546133,"1048 Dean Ave, Bronx, NY 10465, USA",1048,"Dean Avenue",,"New York","United States",10465,"1048, Dean Avenue, East Bronx, Bronx, Bronx County, New York, United States, 10465, 1505"
40.83554175657315,-73.81804507546133,"1048 Dean Ave, Bronx, NY 10465, USA",1048,"Dean Avenue",,"New York","United States",10465,"1048, Dean Avenue, East Bronx, Bronx, Bronx County, New York, United States, 10465, 1505"
40.66157017290012,-73.851852936113,"83-0-83-98 Shore Pkwy N, Howard Beach, NY 11414, USA",83-0-83-98,"Shore Parkway North",,"New York","United States",11414,"83-0-83-98, Shore Parkway North, Howard Beach, Queens, Queens County, New York, United States, 11414"
40.66157017290012,-73.851852936113,"83-0-83-98 Shore Pkwy N, Howard Beach, NY 11414, USA",83-0-83-98,"Shore Parkway North",,"New York","United States",11414,"83-0-83-98, Shore Parkway North, Howard Beach, Queens, Queens County, New York, United States, 11414"
40.82635829148203,-73.89883478944645,"1178 Prospect Ave, Bronx, NY 10459, USA",1178,"Prospect Avenue",,"New York","United States",10459,"1178, Prospect Avenue, Morrisania, Bronx, Bronx County, New York, United States, 10459"
40.75831794895932,-73.91068380578159,"31-2 48th St, Astoria, NY 11103, USA",31-2,"48th Street",,"New York","United States",11103,"31-2, 48th Street, Astoria, Queens, Queens County, New York, United States, 11103"
40.68280834253626,-73.85112791439656,"101-0 89th St, Ozone Park, NY 11416, USA",101-0,"89th Street",,"New York","United States",11416,"101-0, 89th Street, Ozone Park, Queens, Queens County, New York, United States, 11416"
40.68280834253626,-73.85112791439656,"101-0 89th St, Ozone Park, NY 11416, USA",101-0,"89th Street",,"New York","United States",11416,"101-0, 89th Street, Ozone Park, Queens, Queens County, New York, United States, 11416"
40.68280834253626,-73.85112791439656,"101-0 89th St, Ozone Park, NY 11416, USA",101-0,"89th Street",,"New York","United States",11416,"101-0, 89th Street, Ozone Park, Queens, Queens County, New York, United States, 11416"
40.61491733821532,-74.08196743252314,"162-180 Park Hill Ave, Staten Island, NY 10304, USA",162-180,"Park Hill Avenue",,"New York","United States",10304,"162-180, Park Hill Avenue, Park Hill, Staten Island, Richmond County, New York, United States, 10304"
40.757157720915465,-73.90820921116642,"50-16-50-20 31st Ave, Woodside, NY 11377, USA",50-16-50-20,"31st Avenue",,"New York","United States",11377,"50-16-50-20, 31st Avenue, Woodside, Queens, Queens County, New York, United States, 11377"
40.757157720915465,-73.90820921116642,"50-16-50-20 31st Ave, Woodside, NY 11377, USA",50-16-50-20,"31st Avenue",,"New York","United States",11377,"50-16-50-20, 31st Avenue, Woodside, Queens, Queens County, New York, United States, 11377"
40.640478864168756,-73.95036903781539,"409-411 E 28th St, Brooklyn, NY 11226, USA",409-411,"East 28th Street",,"New York","United States",11226,"409-411, East 28th Street, East Flatbush, Brooklyn, Kings County, New York, United States, 11226, 7807"
40.640478864168756,-73.95036903781539,"409-411 E 28th St, Brooklyn, NY 11226, USA",409-411,"East 28th Street",,"New York","United States",11226,"409-411, East 28th Street, East Flatbush, Brooklyn, Kings County, New York, United States, 11226, 7807"
40.640478864168756,-73.95036903781539,"409-411 E 28th St, Brooklyn, NY 11226, USA",409-411,"East 28th Street",,"New York","United States",11226,"409-411, East 28th Street, East Flatbush, Brooklyn, Kings County, New York, United States, 11226, 7807"
40.640478864168756,-73.95036903781539,"409-411 E 28th St, Brooklyn, NY 11226, USA",409-411,"East 28th Street",,"New York","United States",11226,"409-411, East 28th Street, East Flatbush, Brooklyn, Kings County, New York, United States, 11226, 7807"
40.65295215331262,-73.91101587451686,"9698 Avenue B, Brooklyn, NY 11236, USA",9698,"Avenue B",,"New York","United States",11236,"9698, Avenue B, Brownsville, Brooklyn, Kings County, New York, United States, 11236"
40.794233288856404,-73.94694622590342,"101-139 E 108th St, New York, NY 10029, USA",101-139,"East 108th Street","New York","New York","United States",10029,"101-139, East 108th Street, Upper Manhattan, Manhattan, New York, New York County, New York, United States, 10029"
40.794233288856404,-73.94694622590342,"101-139 E 108th St, New York, NY 10029, USA",101-139,"East 108th Street","New York","New York","United States",10029,"101-139, East 108th Street, Upper Manhattan, Manhattan, New York, New York County, New York, United States, 10029"
40.794233288856404,-73.94694622590342,"101-139 E 108th St, New York, NY 10029, USA",101-139,"East 108th Street","New York","New York","United States",10029,"101-139, East 108th Street, Upper Manhattan, Manhattan, New York, New York County, New York, United States, 10029"
40.794233288856404,-73.94694622590342,"101-139 E 108th St, New York, NY 10029, USA",101-139,"East 108th Street","New York","New York","United States",10029,"101-139, East 108th Street, Upper Manhattan, Manhattan, New York, New York County, New York, United States, 10029"
40.76357403810166,-73.92188187466773,"31-1 33rd St, Astoria, NY 11106, USA",31-1,"33rd Street",,"New York","United States",11106,"31-1, 33rd Street, Astoria, Queens, Queens County, New York, United States, 11106"
40.64703014758171,-73.92018409963796,"8500 Avenue B, Brooklyn, NY 11236, USA",8500,"Avenue B",,"New York","United States",11236,"8500, Avenue B, East Flatbush, Brooklyn, Kings County, New York, United States, 11236, 1216"
40.64703014758171,-73.92018409963796,"8500 Avenue B, Brooklyn, NY 11236, USA",8500,"Avenue B",,"New York","United States",11236,"8500, Avenue B, East Flatbush, Brooklyn, Kings County, New York, United States, 11236, 1216"
40.67174907846653,-73.9863805955474,"286-288 6th St, Brooklyn, NY 11215, USA",286-288,"6th Street",,"New York","United States",11215,"286-288, 6th Street, Brooklyn, Kings County, New York, United States, 11215"
40.67174907846653,-73.9863805955474,"286-288 6th St, Brooklyn, NY 11215, USA",286-288,"6th Street",,"New York","United States",11215,"286-288, 6th Street, Brooklyn, Kings County, New York, United States, 11215"
40.81947926289611,-73.9268779616802,"150 E 150th St, Bronx, NY 10451, USA",150,"East 150th Street",,"New York","United States",10451,"150, East 150th Street, West Bronx, Bronx, Bronx County, New York, United States, 10451, 5251"
40.87687849196472,-73.90339007949372,"3028 Bailey Ave, Bronx, NY 10463, USA",3028,"Bailey Avenue",,"New York","United States",10463,"3028, Bailey Avenue, West Bronx, Bronx, Bronx County, New York, United States, 10463"
40.719396293413915,-74.0018831158253,"418 Broadway, New York, NY 10013, USA",418,Broadway,"New York","New York","United States",10013,"418, Broadway, Lower Manhattan, Manhattan, New York, New York County, New York, United States, 10013, 2519"
40.68505794761587,-73.90768828800897,"717 Chauncey St, Brooklyn, NY 11207, USA",717,"Chauncey Street",,"New York","United States",11207,"717, Chauncey Street, Bushwick, Brooklyn, Kings County, New York, United States, 11207, 1424"
40.68505794761587,-73.90768828800897,"717 Chauncey St, Brooklyn, NY 11207, USA",717,"Chauncey Street",,"New York","United States",11207,"717, Chauncey Street, Bushwick, Brooklyn, Kings County, New York, United States, 11207, 1424"
40.83648787376752,-73.91434811160978,"1311 Sheridan Ave, Bronx, NY 10456, USA",1311,"Sheridan Avenue",,"New York","United States",10456,"1311, Sheridan Avenue, Claremont, Bronx, Bronx County, New York, United States, 10456"
40.83648787376752,-73.91434811160978,"1311 Sheridan Ave, Bronx, NY 10456, USA",1311,"Sheridan Avenue",,"New York","United States",10456,"1311, Sheridan Avenue, Claremont, Bronx, Bronx County, New York, United States, 10456"
40.83648787376752,-73.91434811160978,"1311 Sheridan Ave, Bronx, NY 10456, USA",1311,"Sheridan Avenue",,"New York","United States",10456,"1311, Sheridan Avenue, Claremont, Bronx, Bronx County, New York, United States, 10456"
40.86396192092114,-73.89102989866011,"346-348 E 194th St, Bronx, NY 10458, USA",346-348,"East 194th Street",,"New York","United States",10458,"346-348, East 194th Street, Fordham Manor, Bronx, Bronx County, New York, United States, 10458"
40.82519205149975,-73.91628489468451,"3186-3198 Park Ave, Bronx, NY 10451, USA",3186-3198,"Park Avenue",,"New York","United States",10451,"3186-3198, Park Avenue, West Bronx, Bronx, Bronx County, New York, United States, 10451, 4068"
40.63974955959159,-73.95227927425147,"436 E 26th St, Brooklyn, NY 11226, USA",436,"East 26th Street",,"New York","United States",11226,"436, East 26th Street, Flatbush - Ditmas Park, Brooklyn, Kings County, New York, United States, 11226, 7711"
40.63974955959159,-73.95227927425147,"436 E 26th St, Brooklyn, NY 11226, USA",436,"East 26th Street",,"New York","United States",11226,"436, East 26th Street, Flatbush - Ditmas Park, Brooklyn, Kings County, New York, United States, 11226, 7711"
40.574142352623724,-73.9973110565898,"2942-2950 W 31st St, Brooklyn, NY 11224, USA",2942-2950,"West 31st Street",,"New York","United States",11224,"2942-2950, West 31st Street, Coney Island, Brooklyn, Kings County, New York, United States, 11224"
40.83079776835853,-73.8539297396009,"1161 Olmstead Ave, Bronx, NY 10472, USA",1161,"Olmstead Avenue",,"New York","United States",10472,"1161, Olmstead Avenue, East Bronx, Bronx, Bronx County, New York, United States, 10472, 5292"
40.6909048008932,-73.98599084507704,"418-422 Fulton St, Brooklyn, NY 11201, USA",418-422,"Fulton Street",,"New York","United States",11201,"418-422, Fulton Street, Downtown Brooklyn, Brooklyn, Kings County, New York, United States, 11201, 5214"
40.690621934777276,-73.9317791239979,"910A Greene Ave, Brooklyn, NY 11221, USA",910A,"Greene Avenue",,"New York","United States",11221,"910A, Greene Avenue, Bedford-Stuyvesant, Brooklyn, Kings County, New York, United States, 11221"
40.81728244021956,-73.90644271274034,"724-728 Westchester Ave, Bronx, NY 10455, USA",724-728,"Westchester Avenue",,"New York","United States",10455,"724-728, Westchester Avenue, West Bronx, Bronx, Bronx County, New York, United States, 10455"
40.691390540550465,-73.98531281757941,"388 Bridge Street, Brooklyn, NY 11201, USA",,,,"New York","United States",11201,"388 Bridge Street, Downtown Brooklyn, Brooklyn, Kings County, New York, United States, 11201"
40.86943815877587,-73.85208404019043,"1217-1219 Adee Ave, Bronx, NY 10469, USA",1217-1219,"Adee Avenue",,"New York","United States",10469,"1217-1219, Adee Avenue, East Bronx, Bronx, Bronx County, New York, United States, 10469"
40.688683767646864,-73.92253933597351,"840A Monroe St, Brooklyn, NY 11221, USA",840A,"Monroe Street",,"New York","United States",11221,"840A, Monroe Street, Bedford-Stuyvesant, Brooklyn, Kings County, New York, United States, 11221"
40.688683767646864,-73.92253933597351,"840A Monroe St, Brooklyn, NY 11221, USA",840A,"Monroe Street",,"New York","United States",11221,"840A, Monroe Street, Bedford-Stuyvesant, Brooklyn, Kings County, New York, United States, 11221"
40.688683767646864,-73.92253933597351,"840A Monroe St, Brooklyn, NY 11221, USA",840A,"Monroe Street",,"New York","United States",11221,"840A, Monroe Street, Bedford-Stuyvesant, Brooklyn, Kings County, New York, United States, 11221"
40.688683767646864,-73.92253933597351,"840A Monroe St, Brooklyn, NY 11221, USA",840A,"Monroe Street",,"New York","United States",11221,"840A, Monroe Street, Bedford-Stuyvesant, Brooklyn, Kings County, New York, United States, 11221"
40.79959781456838,-73.94394772786886,"72e Luis Munoz Marin Boulevard, New York, NY 10029, USA",72e,"Luis Munoz Marin Boulevard","New York","New York","United States",10029,"72e, Luis Munoz Marin Boulevard, Upper Manhattan, Manhattan, New York, New York County, New York, United States, 10029"
40.79959781456838,-73.94394772786886,"72e Luis Munoz Marin Boulevard, New York, NY 10029, USA",72e,"Luis Munoz Marin Boulevard","New York","New York","United States",10029,"72e, Luis Munoz Marin Boulevard, Upper Manhattan, Manhattan, New York, New York County, New York, United States, 10029"
40.63854878280082,-73.94923188380803,"2900-2902 Foster Ave, Brooklyn, NY 11210, USA",2900-2902,"Foster Avenue",,"New York","United States",11210,"2900-2902, Foster Avenue, East Flatbush, Brooklyn, Kings County, New York, United States, 11210"
40.6336766099283,-74.00963406843246,"838 62nd St, Brooklyn, NY 11220, USA",838,"62nd Street",,"New York","United States",11220,"838, 62nd Street, Sunset Park, Brooklyn, Kings County, New York, United States, 11220"
40.57484429678246,-73.98681071990684,"2001 Surf Ave, Brooklyn, NY 11224, USA",2001,"Surf Avenue",,"New York","United States",11224,"2001, Surf Avenue, Coney Island, Brooklyn, Kings County, New York, United States, 11224"
40.6336766099283,-74.00963406843246,"838 62nd St, Brooklyn, NY 11220, USA",838,"62nd Street",,"New York","United States",11220,"838, 62nd Street, Sunset Park, Brooklyn, Kings County, New York, United States, 11220"
40.88644973657069,-73.84576420404044,"1137-1139 E 229th St, Bronx, NY 10466, USA",1137-1139,"East 229th Street",,"New York","United States",10466,"1137-1139, East 229th Street, East Bronx, Bronx, Bronx County, New York, United States, 10466"
40.88923792560524,-73.83942123431268,"3917 Murdock Ave, Bronx, NY 10466, USA",3917,"Murdock Avenue",,"New York","United States",10466,"3917, Murdock Avenue, East Bronx, Bronx, Bronx County, New York, United States, 10466, 2442"
40.81484247482706,-73.90001196417626,"976 Leggett Ave, Bronx, NY 10455, USA",976,"Leggett Avenue",,"New York","United States",10455,"976, Leggett Avenue, West Bronx, Bronx, Bronx County, New York, United States, 10455"
40.67065802222989,-73.95797447716627,"821 Franklin Ave, Brooklyn, NY 11238, USA",821,"Franklin Avenue",,"New York","United States",11238,"821, Franklin Avenue, Crown Heights, Brooklyn, Kings County, New York, United States, 11238"
40.68847508474399,-73.93104212537679,"881 Gates Ave, Brooklyn, NY 11221, USA",881,"Gates Avenue",,"New York","United States",11221,"881, Gates Avenue, Bedford-Stuyvesant, Brooklyn, Kings County, New York, United States, 11221"
40.62985862085949,-73.96322402874905,"801 E 14th St, Brooklyn, NY 11230, USA",801,"East 14th Street",,"New York","United States",11230,"801, East 14th Street, Flatbush - Ditmas Park, Brooklyn, Kings County, New York, United States, 11230"
40.68847508474399,-73.93104212537679,"881 Gates Ave, Brooklyn, NY 11221, USA",881,"Gates Avenue",,"New York","United States",11221,"881, Gates Avenue, Bedford-Stuyvesant, Brooklyn, Kings County, New York, United States, 11221"
40.63492487283709,-73.96131168098293,"648 E 17th St, Brooklyn, NY 11230, USA",648,"East 17th Street",,"New York","United States",11230,"648, East 17th Street, Flatbush - Ditmas Park, Brooklyn, Kings County, New York, United States, 11230, 1704"
40.866949951857954,-73.9284093555654,"49 Payson Ave, New York, NY 10034, USA",49,"Payson Avenue","New York","New York","United States",10034,"49, Payson Avenue, Inwood, Manhattan, New York, New York County, New York, United States, 10034"
40.81588884696289,-73.90734062992703,"737-743 Dr Ramón S. Velez Blvd, Bronx, NY 10455, USA",737-743,"Doctor Ramón S. Velez Boulevard",,"New York","United States",10455,"737-743, Doctor Ramón S. Velez Boulevard, West Bronx, Bronx, Bronx County, New York, United States, 10455, 2205"
40.85272669285785,-73.86881767686059,"2074 Bronx Park E, Bronx, NY 10462, USA",2074,"Bronx Park East",,"New York","United States",10462,"2074, Bronx Park East, Bronx, Bronx County, New York, United States, 10462"
40.85272669285785,-73.86881767686059,"2074 Bronx Park E, Bronx, NY 10462, USA",2074,"Bronx Park East",,"New York","United States",10462,"2074, Bronx Park East, Bronx, Bronx County, New York, United States, 10462"
40.680919502211744,-73.95472313195444,"1154 Fulton St, Brooklyn, NY 11216, USA",1154,"Fulton Street",,"New York","United States",11216,"1154, Fulton Street, Bedford-Stuyvesant, Brooklyn, Kings County, New York, United States, 11216, 1877"
40.79031415147732,-73.9476860633721,"148 103rd St, New York, NY 10029, USA",148,"103rd Street","New York","New York","United States",10029,"148, 103rd Street, East Harlem, Manhattan, New York, New York County, New York, United States, 10029"
40.632717935943994,-73.98376210813936,"4598 16th Ave, Brooklyn, NY 11204, USA",4598,"16th Avenue",,"New York","United States",11204,"4598, 16th Avenue, Borough Park, Brooklyn, Kings County, New York, United States, 11204"
40.66486639205233,-73.77827292937491,"165-2 144th Rd, Jamaica, NY 11434, USA",165-2,"144th Road",,"New York","United States",11434,"165-2, 144th Road, Jamaica, Queens, Queens County, New York, United States, 11434"
40.686732006675626,-73.946202439182,"515 Gates Ave, Brooklyn, NY 11216, USA",515,"Gates Avenue",,"New York","United States",11216,"515, Gates Avenue, Bedford-Stuyvesant, Brooklyn, Kings County, New York, United States, 11216"
40.681123503136526,-73.73770088553958,"130-17-130-21 230th St, Laurelton, NY 11413, USA",130-17-130-21,"230th Street",,"New York","United States",11413,"130-17-130-21, 230th Street, Laurelton, Queens, Queens County, New York, United States, 11413"
40.681123503136526,-73.73770088553958,"130-17-130-21 230th St, Laurelton, NY 11413, USA",130-17-130-21,"230th Street",,"New York","United States",11413,"130-17-130-21, 230th Street, Laurelton, Queens, Queens County, New York, United States, 11413"
40.86259607799109,-73.8342470292862,"1875 Mace Ave, Bronx, NY 10469, USA",1875,"Mace Avenue",,"New York","United States",10469,"1875, Mace Avenue, East Bronx, Bronx, Bronx County, New York, United States, 10469"
40.746448407426065,-73.86210855320401,"103-0-103-98 45th Ave, Corona, NY 11368, USA",103-0-103-98,"45th Avenue",,"New York","United States",11368,"103-0-103-98, 45th Avenue, Corona, Queens, Queens County, New York, United States, 11368"
40.70725147658869,-73.95845636542914,"227 Williamsburg St W, Brooklyn, NY 11211, USA",227,"Williamsburg Street West",,"New York","United States",11211,"227, Williamsburg Street West, Williamsburg, Brooklyn, Kings County, New York, United States, 11211"
40.70729119760969,-73.95461504869905,"384-386 Broadway, Brooklyn, NY 11211, USA",384-386,Broadway,,"New York","United States",11211,"384-386, Broadway, Williamsburg, Brooklyn, Kings County, New York, United States, 11211"
40.81564017766354,-73.92384026966705,"420-424 Morris Ave, Bronx, NY 10451, USA",420-424,"Morris Avenue",,"New York","United States",10451,"420-424, Morris Avenue, West Bronx, Bronx, Bronx County, New York, United States, 10451"
40.811479897187894,-73.91693071630073,"404 Brook Ave, Bronx, NY 10454, USA",404,"Brook Avenue",,"New York","United States",10454,"404, Brook Avenue, West Bronx, Bronx, Bronx County, New York, United States, 10454"
40.81394148372347,-73.89016890385085,"674 Casanova St, Bronx, NY 10474, USA",674,"Casanova Street",,"New York","United States",10474,"674, Casanova Street, West Bronx, Bronx, Bronx County, New York, United States, 10474, 6302"
40.85239222288541,-73.86675794674484,"2069 Cruger Ave, Bronx, NY 10462, USA",2069,"Cruger Avenue",,"New York","United States",10462,"2069, Cruger Avenue, East Bronx, Bronx, Bronx County, New York, United States, 10462"
40.71140221569914,-73.98237225400558,"649-655 Water St, New York, NY 10002, USA",649-655,"Water Street","New York","New York","United States",10002,"649-655, Water Street, Lower Manhattan, Manhattan, New York, New York County, New York, United States, 10002"
40.65535589121279,-73.95106436172432,"250-270 Clarkson Ave, Brooklyn, NY 11226, USA",250-270,"Clarkson Avenue",,"New York","United States",11226,"250-270, Clarkson Avenue, Prospect Lefferts Gardens, Brooklyn, Kings County, New York, United States, 11226"
40.76007160805355,-73.82814907379658,"136-51-136-53 Roosevelt Ave, Flushing, NY 11354, USA",136-51-136-53,"Roosevelt Avenue",,"New York","United States",11354,"136-51-136-53, Roosevelt Avenue, Flushing, Queens, Queens County, New York, United States, 11354"
40.76007160805355,-73.82814907379658,"136-51-136-53 Roosevelt Ave, Flushing, NY 11354, USA",136-51-136-53,"Roosevelt Avenue",,"New York","United States",11354,"136-51-136-53, Roosevelt Avenue, Flushing, Queens, Queens County, New York, United States, 11354"
40.76007160805355,-73.82814907379658,"136-51-136-53 Roosevelt Ave, Flushing, NY 11354, USA",136-51-136-53,"Roosevelt Avenue",,"New York","United States",11354,"136-51-136-53, Roosevelt Avenue, Flushing, Queens, Queens County, New York, United States, 11354"
40.6384237666386,-73.9521324942619,"501 E 26th St, Brooklyn, NY 11210, USA",501,"East 26th Street",,"New York","United States",11210,"501, East 26th Street, Flatbush - Ditmas Park, Brooklyn, Kings County, New York, United States, 11210, 1329"
40.6384237666386,-73.9521324942619,"501 E 26th St, Brooklyn, NY 11210, USA",501,"East 26th Street",,"New York","United States",11210,"501, East 26th Street, Flatbush - Ditmas Park, Brooklyn, Kings County, New York, United States, 11210, 1329"
40.63204773726648,-74.1167337038565,"372 Broadway, Staten Island, NY 10310, USA",372,Broadway,,"New York","United States",10310,"372, Broadway, West Brighton, Staten Island, Richmond County, New York, United States, 10310, 2034"
40.78905145043832,-73.9272255615619,"Robert F. Kennedy Bridge, New York, NY 10035, USA",,"Robert F. Kennedy Bridge","New York","New York","United States",10035,"Robert F. Kennedy Bridge, Randalls Island, Manhattan, New York, New York County, New York, United States, 10035"
40.69980575445163,-73.9835077428969,"183-187 Sands St, Brooklyn, NY 11201, USA",183-187,"Sands Street",,"New York","United States",11201,"183-187, Sands Street, Brooklyn, Kings County, New York, United States, 11201"
40.609130685623,-73.95740454841642,"1668 East 16th Street, Brooklyn, NY 11229, USA",1668,"East 16th Street",,"New York","United States",11229,"1668, East 16th Street, Brooklyn, Kings County, New York, United States, 11229, 1108"
40.666571963033206,-73.93134593186309,"334 Utica Ave, Brooklyn, NY 11213, USA",334,"Utica Avenue",,"New York","United States",11213,"334, Utica Avenue, Crown Heights, Brooklyn, Kings County, New York, United States, 11213, 5547"
40.67927396230679,-73.8356508822273,"10747 104th St, Ozone Park, NY 11417, USA",10747,"104th Street",,"New York","United States",11417,"10747, 104th Street, Ozone Park, Queens, Queens County, New York, United States, 11417"
40.8601776518961,-73.89174466678065,"4741 Park Ave, Bronx, NY 10458, USA",4741,"Park Avenue",,"New York","United States",10458,"4741, Park Avenue, West Bronx, Bronx, Bronx County, New York, United States, 10458"
40.8884536965314,-73.84195480578377,"3900-3902 Baychester Ave, Bronx, NY 10466, USA",3900-3902,"Baychester Avenue",,"New York","United States",10466,"3900-3902, Baychester Avenue, East Bronx, Bronx, Bronx County, New York, United States, 10466"
40.797721629690045,-73.94649197743651,"1695 Madison Ave, New York, NY 10029, USA",1695,"Madison Avenue","New York","New York","United States",10029,"1695, Madison Avenue, Upper Manhattan, Manhattan, New York, New York County, New York, United States, 10029"
40.793470876263434,-73.93725713517394,"2167-2175 1st Avenue, New York, NY 10029, USA",2167-2175,"1st Avenue","New York","New York","United States",10029,"2167-2175, 1st Avenue, East Harlem, Manhattan, New York, New York County, New York, United States, 10029"
40.793470876263434,-73.93725713517394,"2167-2175 1st Avenue, New York, NY 10029, USA",2167-2175,"1st Avenue","New York","New York","United States",10029,"2167-2175, 1st Avenue, East Harlem, Manhattan, New York, New York County, New York, United States, 10029"
40.671062387095,-73.73111824468398,"244-1 135th Ave, Rosedale, NY 11422, USA",244-1,"135th Avenue",,"New York","United States",11422,"244-1, 135th Avenue, Rosedale, Queens, Queens County, New York, United States, 11422"
40.671062387095,-73.73111824468398,"244-1 135th Ave, Rosedale, NY 11422, USA",244-1,"135th Avenue",,"New York","United States",11422,"244-1, 135th Avenue, Rosedale, Queens, Queens County, New York, United States, 11422"
40.84726579848966,-73.89387651235121,"573 E 178th St, Bronx, NY 10457, USA",573,"East 178th Street",,"New York","United States",10457,"573, East 178th Street, Tremont, Bronx, Bronx County, New York, United States, 10457"
40.700734208726445,-73.98972871152452,"110-188 Cadman Plaza E, Brooklyn, NY 11201, USA",110-188,"Cadman Plaza East",,"New York","United States",11201,"110-188, Cadman Plaza East, Downtown Brooklyn, Brooklyn, Kings County, New York, United States, 11201"
40.87861303032917,-73.84946000378939,"3495 Fenton Ave, Bronx, NY 10469, USA",3495,"Fenton Avenue",,"New York","United States",10469,"3495, Fenton Avenue, East Bronx, Bronx, Bronx County, New York, United States, 10469"
40.67709622975429,-74.01047314506876,"135-139 Richards St, Brooklyn, NY 11231, USA",135-139,"Richards Street",,"New York","United States",11231,"135-139, Richards Street, Red Hook, Brooklyn, Kings County, New York, United States, 11231"
40.67709622975429,-74.01047314506876,"135-139 Richards St, Brooklyn, NY 11231, USA",135-139,"Richards Street",,"New York","United States",11231,"135-139, Richards Street, Red Hook, Brooklyn, Kings County, New York, United States, 11231"
40.799199363383394,-73.94299815285679,"104 E 116th St, New York, NY 10029, USA",104,"East 116th Street","New York","New York","United States",10029,"104, East 116th Street, East Harlem, Manhattan, New York, New York County, New York, United States, 10029"
40.866806437270675,-73.86830904008636,"2802 Olinville Ave, Bronx, NY 10467, USA",2802,"Olinville Avenue",,"New York","United States",10467,"2802, Olinville Avenue, East Bronx, Bronx, Bronx County, New York, United States, 10467"
40.878851579146804,-73.85571903390783,"1000 E 216th St, Bronx, NY 10469, USA",1000,"East 216th Street",,"New York","United States",10469,"1000, East 216th Street, East Bronx, Bronx, Bronx County, New York, United States, 10469"
40.87958096803832,-73.87899129583796,"158 E 210th St, Bronx, NY 10467, USA",158,"East 210th Street",,"New York","United States",10467,"158, East 210th Street, West Bronx, Bronx, Bronx County, New York, United States, 10467, 2411"
40.87958096803832,-73.87899129583796,"158 E 210th St, Bronx, NY 10467, USA",158,"East 210th Street",,"New York","United States",10467,"158, East 210th Street, West Bronx, Bronx, Bronx County, New York, United States, 10467, 2411"
40.664901358412514,-73.89305284665936,"585 New Jersey Ave, Brooklyn, NY 11207, USA",585,"New Jersey Avenue",,"New York","United States",11207,"585, New Jersey Avenue, East New York, Brooklyn, Kings County, New York, United States, 11207"
40.664901358412514,-73.89305284665936,"585 New Jersey Ave, Brooklyn, NY 11207, USA",585,"New Jersey Avenue",,"New York","United States",11207,"585, New Jersey Avenue, East New York, Brooklyn, Kings County, New York, United States, 11207"
40.824077541744316,-73.94888438664329,"498 W 143rd St, New York, NY 10031, USA",498,"West 143rd Street","New York","New York","United States",10031,"498, West 143rd Street, Upper Manhattan, Manhattan, New York, New York County, New York, United States, 10031"
40.8141815662255,-73.91073888981845,"554-560 Cauldwell Ave, Bronx, NY 10455, USA",554-560,"Cauldwell Avenue",,"New York","United States",10455,"554-560, Cauldwell Avenue, West Bronx, Bronx, Bronx County, New York, United States, 10455"
40.8141815662255,-73.91073888981845,"554-560 Cauldwell Ave, Bronx, NY 10455, USA",554-560,"Cauldwell Avenue",,"New York","United States",10455,"554-560, Cauldwell Avenue, West Bronx, Bronx, Bronx County, New York, United States, 10455"
40.66879784311931,-73.9311201452519,"279 Utica Ave, Brooklyn, NY 11213, USA",279,"Utica Avenue",,"New York","United States",11213,"279, Utica Avenue, Crown Heights, Brooklyn, Kings County, New York, United States, 11213"
40.760308507720204,-73.87580763037465,"31-0 93rd St, East Elmhurst, NY 11369, USA",31-0,"93rd Street",,"New York","United States",11369,"31-0, 93rd Street, East Elmhurst, Queens, Queens County, New York, United States, 11369, 1735"
40.62487712712623,-73.96417420295703,"1124-1198 Avenue J, Brooklyn, NY 11230, USA",1124-1198,"Avenue J",,"New York","United States",11230,"1124-1198, Avenue J, Midwood, Brooklyn, Kings County, New York, United States, 11230"
40.71866864882967,-73.96349248152421,"43 N 4th Pl, Brooklyn, NY 11249, USA",43,"North 4th Place",,"New York","United States",11249,"43, North 4th Place, Williamsburg, Brooklyn, Kings County, New York, United States, 11249, 3104"
40.71866864882967,-73.96349248152421,"43 N 4th Pl, Brooklyn, NY 11249, USA",43,"North 4th Place",,"New York","United States",11249,"43, North 4th Place, Williamsburg, Brooklyn, Kings County, New York, United States, 11249, 3104"
40.86193588644682,-73.92077214663841,"431 W 203rd St, New York, NY 10034, USA",431,"West 203rd Street","New York","New York","United States",10034,"431, West 203rd Street, Upper Manhattan, Manhattan, New York, New York County, New York, United States, 10034, 3704"
40.759569525960025,-73.83013930521312,"39-22 Main St, Flushing, NY 11354, USA",39-22,"Main Street",,"New York","United States",11354,"39-22, Main Street, Flushing, Queens, Queens County, New York, United States, 11354"
40.632518806114305,-74.0971928974968,"800-806 Brighton Ave, Staten Island, NY 10301, USA",800-806,"Brighton Avenue",,"New York","United States",10301,"800-806, Brighton Avenue, Staten Island, Richmond County, New York, United States, 10301"
40.68444230612648,-73.97771732623377,"131-135 Flatbush Ave, Brooklyn, NY 11217, USA",131-135,"Flatbush Avenue",,"New York","United States",11217,"131-135, Flatbush Avenue, Brooklyn, Kings County, New York, United States, 11217"
40.68444230612648,-73.97771732623377,"131-135 Flatbush Ave, Brooklyn, NY 11217, USA",131-135,"Flatbush Avenue",,"New York","United States",11217,"131-135, Flatbush Avenue, Brooklyn, Kings County, New York, United States, 11217"
40.57736752523764,-73.99915044004362,"3201 Neptune Ave, Brooklyn, NY 11224, USA",3201,"Neptune Avenue",,"New York","United States",11224,"3201, Neptune Avenue, Coney Island, Brooklyn, Kings County, New York, United States, 11224"
40.88861698822669,-73.86001254951994,"4004 White Plains Rd, Bronx, NY 10466, USA",4004,"White Plains Road",,"New York","United States",10466,"4004, White Plains Road, East Bronx, Bronx, Bronx County, New York, United States, 10466"
40.85272774857729,-73.93442873681404,"699 W 185th St, New York, NY 10033, USA",699,"West 185th Street","New York","New York","United States",10033,"699, West 185th Street, Fort George, Manhattan, New York, New York County, New York, United States, 10033, 3102"
40.678722986978606,-73.95298686771372,"1307 Bedford Ave, Brooklyn, NY 11216, USA",1307,"Bedford Avenue",,"New York","United States",11216,"1307, Bedford Avenue, Brooklyn, Kings County, New York, United States, 11216"
40.678722986978606,-73.95298686771372,"1307 Bedford Ave, Brooklyn, NY 11216, USA",1307,"Bedford Avenue",,"New York","United States",11216,"1307, Bedford Avenue, Brooklyn, Kings County, New York, United States, 11216"
40.678962252169974,-73.95415121572914,"1119 Atlantic Ave, Brooklyn, NY 11216, USA",1119,"Atlantic Avenue",,"New York","United States",11216,"1119, Atlantic Avenue, Bedford-Stuyvesant, Brooklyn, Kings County, New York, United States, 11216, 2702"
40.57873442482367,-73.99811365030567,"3162 Bayview Ave, Brooklyn, NY 11224, USA",3162,"Bayview Avenue",,"New York","United States",11224,"3162, Bayview Avenue, Coney Island, Brooklyn, Kings County, New York, United States, 11224"
40.700005453571436,-73.89137723507974,"749-7411 64th Pl, Glendale, NY 11385, USA",749-7411,"64th Place",,"New York","United States",11385,"749-7411, 64th Place, Glendale, Queens, Queens County, New York, United States, 11385"
40.87697596892482,-73.88965978148144,"41-43 W 205th St, Bronx, NY 10468, USA",41-43,"West 205th Street",,"New York","United States",10468,"41-43, West 205th Street, West Bronx, Bronx, Bronx County, New York, United States, 10468, 1052"
40.81586555646065,-73.89920840029241,"742-744 Beck St, Bronx, NY 10455, USA",742-744,"Beck Street",,"New York","United States",10455,"742-744, Beck Street, West Bronx, Bronx, Bronx County, New York, United States, 10455"
40.81586555646065,-73.89920840029241,"742-744 Beck St, Bronx, NY 10455, USA",742-744,"Beck Street",,"New York","United States",10455,"742-744, Beck Street, West Bronx, Bronx, Bronx County, New York, United States, 10455"
40.635932597718146,-73.96248206847102,"588 E 16th St, Brooklyn, NY 11226, USA",588,"East 16th Street",,"New York","United States",11226,"588, East 16th Street, Flatbush - Ditmas Park, Brooklyn, Kings County, New York, United States, 11226, 6507"
40.66734993516279,-73.95628235853945,"1620 Bedford Ave, Brooklyn, NY 11225, USA",1620,"Bedford Avenue",,"New York","United States",11225,"1620, Bedford Avenue, Crown Heights, Brooklyn, Kings County, New York, United States, 11225, 2002"
40.74493461528172,-73.86791117055536,"95-99 44th Ave, Elmhurst, NY 11373, USA",95-99,"44th Avenue",,"New York","United States",11373,"95-99, 44th Avenue, Elmhurst, Queens, Queens County, New York, United States, 11373"
40.66816915109199,-73.95256534351225,"1146-1150 President St, Brooklyn, NY 11225, USA",1146-1150,"President Street",,"New York","United States",11225,"1146-1150, President Street, Crown Heights, Brooklyn, Kings County, New York, United States, 11225, 1704"
40.68425754324315,-73.81513711376682,"127-11 109th Ave, South Ozone Park, NY 11420, USA",127-11,"109th Avenue",,"New York","United States",11420,"127-11, 109th Avenue, South Ozone Park, Queens, Queens County, New York, United States, 11420"
40.68425754324315,-73.81513711376682,"127-11 109th Ave, South Ozone Park, NY 11420, USA",127-11,"109th Avenue",,"New York","United States",11420,"127-11, 109th Avenue, South Ozone Park, Queens, Queens County, New York, United States, 11420"
40.68425754324315,-73.81513711376682,"127-11 109th Ave, South Ozone Park, NY 11420, USA",127-11,"109th Avenue",,"New York","United States",11420,"127-11, 109th Avenue, South Ozone Park, Queens, Queens County, New York, United States, 11420"
40.8342565355683,-73.90403378099644,"3663 Third Ave, Bronx, NY 10456, USA",3663,"Third Avenue",,"New York","United States",10456,"3663, Third Avenue, West Bronx, Bronx, Bronx County, New York, United States, 10456"
40.8342565355683,-73.90403378099644,"3663 Third Ave, Bronx, NY 10456, USA",3663,"Third Avenue",,"New York","United States",10456,"3663, Third Avenue, West Bronx, Bronx, Bronx County, New York, United States, 10456"
40.64530176123561,-73.95803729332899,"1045-1049 Flatbush Ave, Brooklyn, NY 11226, USA",1045-1049,"Flatbush Avenue",,"New York","United States",11226,"1045-1049, Flatbush Avenue, Flatbush - Ditmas Park, Brooklyn, Kings County, New York, United States, 11226, 5429"
40.63230383542976,-73.93701235307269,"4100-4102 Avenue H, Brooklyn, NY 11210, USA",4100-4102,"Avenue H",,"New York","United States",11210,"4100-4102, Avenue H, East Flatbush, Brooklyn, Kings County, New York, United States, 11210, 3516"
40.642026651410845,-73.9991748400343,"4503 9th Ave, Brooklyn, NY 11220, USA",4503,"9th Avenue",,"New York","United States",11220,"4503, 9th Avenue, Sunset Park, Brooklyn, Kings County, New York, United States, 11220"
40.826625372597135,-73.88787519077815,"1096 Longfellow Ave, Bronx, NY 10459, USA",1096,"Longfellow Avenue",,"New York","United States",10459,"1096, Longfellow Avenue, West Bronx, Bronx, Bronx County, New York, United States, 10459"
40.549540579400905,-74.15072337202506,"21 Nelson Ave, Staten Island, NY 10308, USA",21,"Nelson Avenue",,"New York","United States",10308,"21, Nelson Avenue, Great Kills, Staten Island, Richmond County, New York, United States, 10308, 2704"
40.549540579400905,-74.15072337202506,"21 Nelson Ave, Staten Island, NY 10308, USA",21,"Nelson Avenue",,"New York","United States",10308,"21, Nelson Avenue, Great Kills, Staten Island, Richmond County, New York, United States, 10308, 2704"
40.81466267860714,-73.90158735748615,"664 Beck St, Bronx, NY 10455, USA",664,"Beck Street",,"New York","United States",10455,"664, Beck Street, West Bronx, Bronx, Bronx County, New York, United States, 10455"
40.778664770517,-73.9107503928042,"21-20-21-22 28th St, Astoria, NY 11105, USA",21-20-21-22,"28th Street",,"New York","United States",11105,"21-20-21-22, 28th Street, Astoria, Queens, Queens County, New York, United States, 11105"
40.778664770517,-73.9107503928042,"21-20-21-22 28th St, Astoria, NY 11105, USA",21-20-21-22,"28th Street",,"New York","United States",11105,"21-20-21-22, 28th Street, Astoria, Queens, Queens County, New York, United States, 11105"
40.66807340950578,-73.80788238266507,"130-29-130-99 135th Ave, South Ozone Park, NY 11420, USA",130-29-130-99,"135th Avenue",,"New York","United States",11420,"130-29-130-99, 135th Avenue, South Ozone Park, Queens, Queens County, New York, United States, 11420"
40.66807340950578,-73.80788238266507,"130-29-130-99 135th Ave, South Ozone Park, NY 11420, USA",130-29-130-99,"135th Avenue",,"New York","United States",11420,"130-29-130-99, 135th Avenue, South Ozone Park, Queens, Queens County, New York, United States, 11420"
40.6580597576917,-73.93496248202278,"761 Winthrop St, Brooklyn, NY 11203, USA",761,"Winthrop Street",,"New York","United States",11203,"761, Winthrop Street, East Flatbush, Brooklyn, Kings County, New York, United States, 11203"
40.649119465803594,-73.83736484922329,"165th Ave, Howard Beach, NY 11414, USA",,"165th Avenue",,"New York","United States",11414,"165th Avenue, Howard Beach, Queens, Queens County, New York, United States, 11414"
40.66401058607959,-73.7491512580317,"143-61-143-63 229th St, Springfield Gardens, NY 11413, USA",143-61-143-63,"229th Street",,"New York","United States",11413,"143-61-143-63, 229th Street, Springfield Gardens, Queens, Queens County, New York, United States, 11413, 3615"
40.68204331237236,-73.8089093611318,"132-99 Linden Blvd, South Ozone Park, NY 11420, USA",132-99,"Linden Boulevard",,"New York","United States",11420,"132-99, Linden Boulevard, South Ozone Park, Queens, Queens County, New York, United States, 11420"
40.66401058607959,-73.7491512580317,"143-61-143-63 229th St, Springfield Gardens, NY 11413, USA",143-61-143-63,"229th Street",,"New York","United States",11413,"143-61-143-63, 229th Street, Springfield Gardens, Queens, Queens County, New York, United States, 11413, 3615"
40.644939444476506,-73.95802310728722,"1064 Flatbush Ave, Brooklyn, NY 11226, USA",1064,"Flatbush Avenue",,"New York","United States",11226,"1064, Flatbush Avenue, Flatbush - Ditmas Park, Brooklyn, Kings County, New York, United States, 11226"
40.75943689806555,-73.91308634691345,"45-4 31st Ave, Astoria, NY 11103, USA",45-4,"31st Avenue",,"New York","United States",11103,"45-4, 31st Avenue, Astoria, Queens, Queens County, New York, United States, 11103"
40.75943689806555,-73.91308634691345,"45-4 31st Ave, Astoria, NY 11103, USA",45-4,"31st Avenue",,"New York","United States",11103,"45-4, 31st Avenue, Astoria, Queens, Queens County, New York, United States, 11103"
40.6687308873076,-73.85584192665013,"150-0 79th St, Howard Beach, NY 11414, USA",150-0,"79th Street",,"New York","United States",11414,"150-0, 79th Street, Howard Beach, Queens, Queens County, New York, United States, 11414, 1112"
40.63486522514195,-74.02638066806833,"301 Ovington Ave, Brooklyn, NY 11209, USA",301,"Ovington Avenue",,"New York","United States",11209,"301, Ovington Avenue, Bay Ridge, Brooklyn, Kings County, New York, United States, 11209"
40.62487712712623,-73.96417420295703,"1124-1198 Avenue J, Brooklyn, NY 11230, USA",1124-1198,"Avenue J",,"New York","United States",11230,"1124-1198, Avenue J, Midwood, Brooklyn, Kings County, New York, United States, 11230"
40.83290054555275,-73.93543841927072,"2989-3647 Harlem River Drive Service Rd W, New York, NY 10039, USA",2989-3647,"Harlem River Drive Service Road West","New York","New York","United States",10039,"2989-3647, Harlem River Drive Service Road West, Upper Manhattan, Manhattan, New York, New York County, New York, United States, 10039, 1145"
40.80369808838899,-73.93791211605358,"150 E 124th St, New York, NY 10035, USA",150,"East 124th Street","New York","New York","United States",10035,"150, East 124th Street, Upper Manhattan, Manhattan, New York, New York County, New York, United States, 10035"
40.61403524681481,-74.00319480341562,"7899 16th Ave, Brooklyn, NY 11214, USA",7899,"16th Avenue",,"New York","United States",11214,"7899, 16th Avenue, Bensonhurst, Brooklyn, Kings County, New York, United States, 11214, 1003"
40.81587766181231,-73.90050535341071,"717-719 Kelly St, Bronx, NY 10455, USA",717-719,"Kelly Street",,"New York","United States",10455,"717-719, Kelly Street, West Bronx, Bronx, Bronx County, New York, United States, 10455"
40.81528934258199,-73.90260882541916,"938 Avenue St John, Bronx, NY 10455, USA",938,"Avenue Saint John",,"New York","United States",10455,"938, Avenue Saint John, Woodstock, Bronx, Bronx County, New York, United States, 10455"
40.81528934258199,-73.90260882541916,"938 Avenue St John, Bronx, NY 10455, USA",938,"Avenue Saint John",,"New York","United States",10455,"938, Avenue Saint John, Woodstock, Bronx, Bronx County, New York, United States, 10455"
40.67965895927919,-73.93593649490002,"1615-1617 Fulton St, Brooklyn, NY 11213, USA",1615-1617,"Fulton Street",,"New York","United States",11213,"1615-1617, Fulton Street, Bedford-Stuyvesant, Brooklyn, Kings County, New York, United States, 11213"
40.766915695865436,-73.82364769105955,"144-12 34th Ave, Flushing, NY 11354, USA",144-12,"34th Avenue",,"New York","United States",11354,"144-12, 34th Avenue, Flushing, Queens, Queens County, New York, United States, 11354"
40.766915695865436,-73.82364769105955,"144-12 34th Ave, Flushing, NY 11354, USA",144-12,"34th Avenue",,"New York","United States",11354,"144-12, 34th Avenue, Flushing, Queens, Queens County, New York, United States, 11354"
40.766915695865436,-73.82364769105955,"144-12 34th Ave, Flushing, NY 11354, USA",144-12,"34th Avenue",,"New York","United States",11354,"144-12, 34th Avenue, Flushing, Queens, Queens County, New York, United States, 11354"
40.766915695865436,-73.82364769105955,"144-12 34th Ave, Flushing, NY 11354, USA",144-12,"34th Avenue",,"New York","United States",11354,"144-12, 34th Avenue, Flushing, Queens, Queens County, New York, United States, 11354"
40.57508066330278,-73.98990282163668,"2940-2946 W 23rd St, Brooklyn, NY 11224, USA",2940-2946,"West 23rd Street",,"New York","United States",11224,"2940-2946, West 23rd Street, Coney Island, Brooklyn, Kings County, New York, United States, 11224, 2202"
40.87955395687802,-73.89946262155506,"3350 Fort Independence St, Bronx, NY 10463, USA",3350,"Fort Independence Street",,"New York","United States",10463,"3350, Fort Independence Street, West Bronx, Bronx, Bronx County, New York, United States, 10463"
40.69829860393218,-73.9816977229818,"240-264 Nassau St, Brooklyn, NY 11201, USA",240-264,"Nassau Street",,"New York","United States",11201,"240-264, Nassau Street, Brooklyn, Kings County, New York, United States, 11201, 2037"
40.87955395687802,-73.89946262155506,"3350 Fort Independence St, Bronx, NY 10463, USA",3350,"Fort Independence Street",,"New York","United States",10463,"3350, Fort Independence Street, West Bronx, Bronx, Bronx County, New York, United States, 10463"
40.87955395687802,-73.89946262155506,"3350 Fort Independence St, Bronx, NY 10463, USA",3350,"Fort Independence Street",,"New York","United States",10463,"3350, Fort Independence Street, West Bronx, Bronx, Bronx County, New York, United States, 10463"
40.596588300591,-73.75857959587346,"2-68-2-98 Watjean Ct, Far Rockaway, NY 11691, USA",2-68-2-98,"Watjean Court",,"New York","United States",11691,"2-68-2-98, Watjean Court, Far Rockaway, Queens, Queens County, New York, United States, 11691, 2724"
40.596588300591,-73.75857959587346,"2-68-2-98 Watjean Ct, Far Rockaway, NY 11691, USA",2-68-2-98,"Watjean Court",,"New York","United States",11691,"2-68-2-98, Watjean Court, Far Rockaway, Queens, Queens County, New York, United States, 11691, 2724"
40.596588300591,-73.75857959587346,"2-68-2-98 Watjean Ct, Far Rockaway, NY 11691, USA",2-68-2-98,"Watjean Court",,"New York","United States",11691,"2-68-2-98, Watjean Court, Far Rockaway, Queens, Queens County, New York, United States, 11691, 2724"
40.8256497181765,-73.90476884673477,"1020-1026 Trinity Ave, Bronx, NY 10456, USA",1020-1026,"Trinity Avenue",,"New York","United States",10456,"1020-1026, Trinity Avenue, West Bronx, Bronx, Bronx County, New York, United States, 10456"
40.815976827385704,-73.9110146628044,"601 Westchester Ave, Bronx, NY 10455, USA",601,"Westchester Avenue",,"New York","United States",10455,"601, Westchester Avenue, West Bronx, Bronx, Bronx County, New York, United States, 10455, 1504"
40.66125050882377,-73.91966968324184,"9680-9714 Kings Hwy, Brooklyn, NY 11212, USA",9680-9714,"Kings Highway",,"New York","United States",11212,"9680-9714, Kings Highway, Brooklyn, Kings County, New York, United States, 11212"
40.814228987633356,-73.89839442119357,"725-731 La 65 de Infantería, Bronx, NY 10455, USA",725-731,"La 65 de Infantería",,"New York","United States",10455,"725-731, La 65 de Infantería, Woodstock, Bronx, Bronx County, New York, United States, 10455, 2105"
40.814228987633356,-73.89839442119357,"725-731 La 65 de Infantería, Bronx, NY 10455, USA",725-731,"La 65 de Infantería",,"New York","United States",10455,"725-731, La 65 de Infantería, Woodstock, Bronx, Bronx County, New York, United States, 10455, 2105"
40.81724764431457,-73.89778647340856,"965-989 Longwood Ave, Bronx, NY 10459, USA",965-989,"Longwood Avenue",,"New York","United States",10459,"965-989, Longwood Avenue, West Bronx, Bronx, Bronx County, New York, United States, 10459, 4058"
40.75412216453815,-73.88131625846412,"3348-3414 86th St, Jackson Heights, NY 11372, USA",3348-3414,"86th Street",,"New York","United States",11372,"3348-3414, 86th Street, Jackson Heights, Queens, Queens County, New York, United States, 11372"
40.75412216453815,-73.88131625846412,"3348-3414 86th St, Jackson Heights, NY 11372, USA",3348-3414,"86th Street",,"New York","United States",11372,"3348-3414, 86th Street, Jackson Heights, Queens, Queens County, New York, United States, 11372"
40.70222054524599,-73.76601253444078,"110-50 Farmers Blvd, St. Albans, NY 11412, USA",110-50,"Farmers Boulevard",,"New York","United States",11412,"110-50, Farmers Boulevard, St. Albans, Queens, Queens County, New York, United States, 11412"
40.601949791255656,-73.99380961331761,"2201 86th St, Brooklyn, NY 11214, USA",2201,"86th Street",,"New York","United States",11214,"2201, 86th Street, Brooklyn, Kings County, New York, United States, 11214, 4107"
40.84168460923073,-73.92358276267791,"1364-1366 Plimpton Ave, Bronx, NY 10452, USA",1364-1366,"Plimpton Avenue",,"New York","United States",10452,"1364-1366, Plimpton Avenue, West Bronx, Bronx, Bronx County, New York, United States, 10452, 2401"
40.79465101054069,-73.97178633998193,"252 W 96th St, New York, NY 10025, USA",252,"West 96th Street","New York","New York","United States",10025,"252, West 96th Street, Upper West Side, Manhattan, New York, New York County, New York, United States, 10025"
40.79465101054069,-73.97178633998193,"252 W 96th St, New York, NY 10025, USA",252,"West 96th Street","New York","New York","United States",10025,"252, West 96th Street, Upper West Side, Manhattan, New York, New York County, New York, United States, 10025"
40.79465101054069,-73.97178633998193,"252 W 96th St, New York, NY 10025, USA",252,"West 96th Street","New York","New York","United States",10025,"252, West 96th Street, Upper West Side, Manhattan, New York, New York County, New York, United States, 10025"
40.75914960593104,-73.79321713336141,"40-54 Utopia Pkwy, Flushing, NY 11358, USA",40-54,"Utopia Parkway",,"New York","United States",11358,"40-54, Utopia Parkway, Flushing, Queens, Queens County, New York, United States, 11358"
40.74725984402366,-73.98331554481858,"171n Madison Ave, New York, NY 10016, USA",171n,"Madison Avenue","New York","New York","United States",10016,"171n, Madison Avenue, Midtown, Manhattan, New York, New York County, New York, United States, 10016"
40.704721042779205,-73.940280133898,"145-155 Seigel St, Brooklyn, NY 11206, USA",145-155,"Seigel Street",,"New York","United States",11206,"145-155, Seigel Street, Williamsburg, Brooklyn, Kings County, New York, United States, 11206"
40.86364974017122,-73.89178962938415,"2582-2598 Marion Ave, Bronx, NY 10458, USA",2582-2598,"Marion Avenue",,"New York","United States",10458,"2582-2598, Marion Avenue, West Bronx, Bronx, Bronx County, New York, United States, 10458, 4758"
40.6997671631984,-73.98239696908176,"197-225 Sands St, Brooklyn, NY 11201, USA",197-225,"Sands Street",,"New York","United States",11201,"197-225, Sands Street, Brooklyn, Kings County, New York, United States, 11201"
40.6997671631984,-73.98239696908176,"197-225 Sands St, Brooklyn, NY 11201, USA",197-225,"Sands Street",,"New York","United States",11201,"197-225, Sands Street, Brooklyn, Kings County, New York, United States, 11201"
40.82183481217769,-73.91950835152257,"285 Rev. Grady H. Donald Blvd, Bronx, NY 10451, USA",285,"Rev. Grady H. Donald Boulevard",,"New York","United States",10451,"285, Rev. Grady H. Donald Boulevard, West Bronx, Bronx, Bronx County, New York, United States, 10451"
40.8041683679298,-73.96670008656616,"600 W 110th St, New York, NY 10025, USA",600,"West 110th Street","New York","New York","United States",10025,"600, West 110th Street, Upper West Side, Manhattan, New York, New York County, New York, United States, 10025"
40.79976019415496,-73.96620746732846,"917 Amsterdam Ave, New York, NY 10025, USA",917,"Amsterdam Avenue","New York","New York","United States",10025,"917, Amsterdam Avenue, Upper West Side, Manhattan, New York, New York County, New York, United States, 10025"
40.8144844575228,-73.86632084334123,"391 Bronx River Ave, Bronx, NY 10473, USA",391,"Bronx River Avenue",,"New York","United States",10473,"391, Bronx River Avenue, East Bronx, Bronx, Bronx County, New York, United States, 10473"
40.8144844575228,-73.86632084334123,"391 Bronx River Ave, Bronx, NY 10473, USA",391,"Bronx River Avenue",,"New York","United States",10473,"391, Bronx River Avenue, East Bronx, Bronx, Bronx County, New York, United States, 10473"
40.707355600920444,-73.79609737360245,"8905 165th St, Jamaica, NY 11432, USA",8905,"165th Street",,"New York","United States",11432,"8905, 165th Street, Jamaica, Queens, Queens County, New York, United States, 11432, 5143"
40.72201804856058,-73.97723937693053,"58 Avenue D, New York, NY 10009, USA",58,"Avenue D","New York","New York","United States",10009,"58, Avenue D, Lower Manhattan, Manhattan, New York, New York County, New York, United States, 10009, 7011"
40.67011113714775,-73.91279179609563,"17 Bristol St, Brooklyn, NY 11212, USA",17,"Bristol Street",,"New York","United States",11212,"17, Bristol Street, Brownsville, Brooklyn, Kings County, New York, United States, 11212"
40.67159674083036,-73.95798830534392,"552-560 Lincoln Pl, Brooklyn, NY 11238, USA",552-560,"Lincoln Place",,"New York","United States",11238,"552-560, Lincoln Place, Crown Heights, Brooklyn, Kings County, New York, United States, 11238"
40.707991393490936,-73.92393079912927,"21-39 Gardner Ave, Brooklyn, NY 11237, USA",21-39,"Gardner Avenue",,"New York","United States",11237,"21-39, Gardner Avenue, East Williamsburg, Brooklyn, Kings County, New York, United States, 11237"
40.67159674083036,-73.95798830534392,"552-560 Lincoln Pl, Brooklyn, NY 11238, USA",552-560,"Lincoln Place",,"New York","United States",11238,"552-560, Lincoln Place, Crown Heights, Brooklyn, Kings County, New York, United States, 11238"
40.70190864447906,-73.9369826543938,"457 Bushwick Ave, Brooklyn, NY 11206, USA",457,"Bushwick Avenue",,"New York","United States",11206,"457, Bushwick Avenue, Brooklyn, Kings County, New York, United States, 11206"
40.882663669729716,-73.85994190848965,"800 E 219th St, Bronx, NY 10467, USA",800,"East 219th Street",,"New York","United States",10467,"800, East 219th Street, East Bronx, Bronx, Bronx County, New York, United States, 10467"
40.71308176081444,-73.98081351674782,"16 Jackson St, New York, NY 10002, USA",16,"Jackson Street","New York","New York","United States",10002,"16, Jackson Street, Lower Manhattan, Manhattan, New York, New York County, New York, United States, 10002"
40.834946035704554,-73.90811273164753,"1336-1348 Webster Ave, Bronx, NY 10456, USA",1336-1348,"Webster Avenue",,"New York","United States",10456,"1336-1348, Webster Avenue, West Bronx, Bronx, Bronx County, New York, United States, 10456"
40.66848240617811,-73.95342305084635,"216-218 Rogers Ave, Brooklyn, NY 11225, USA",216-218,"Rogers Avenue",,"New York","United States",11225,"216-218, Rogers Avenue, Crown Heights, Brooklyn, Kings County, New York, United States, 11225"
40.66848240617811,-73.95342305084635,"216-218 Rogers Ave, Brooklyn, NY 11225, USA",216-218,"Rogers Avenue",,"New York","United States",11225,"216-218, Rogers Avenue, Crown Heights, Brooklyn, Kings County, New York, United States, 11225"
40.66848240617811,-73.95342305084635,"216-218 Rogers Ave, Brooklyn, NY 11225, USA",216-218,"Rogers Avenue",,"New York","United States",11225,"216-218, Rogers Avenue, Crown Heights, Brooklyn, Kings County, New York, United States, 11225"
40.66848240617811,-73.95342305084635,"216-218 Rogers Ave, Brooklyn, NY 11225, USA",216-218,"Rogers Avenue",,"New York","United States",11225,"216-218, Rogers Avenue, Crown Heights, Brooklyn, Kings County, New York, United States, 11225"
40.8264016562215,-73.8757998985402,"1569-1577 Watson Ave, Bronx, NY 10472, USA",1569-1577,"Watson Avenue",,"New York","United States",10472,"1569-1577, Watson Avenue, East Bronx, Bronx, Bronx County, New York, United States, 10472, 5325"
40.711745899475645,-73.98676198870955,"250 Clinton St, New York, NY 10002, USA",250,"Clinton Street","New York","New York","United States",10002,"250, Clinton Street, Lower Manhattan, Manhattan, New York, New York County, New York, United States, 10002"
40.69716445333392,-73.90684568256626,"883 Wyckoff Ave, Ridgewood, NY 11385, USA",883,"Wyckoff Avenue","New York","New York","United States",11385,"883, Wyckoff Avenue, Ridgewood, New York, New York, United States, 11385"
40.86065757932406,-73.9004492066817,"2410 Morris Ave, Bronx, NY 10468, USA",2410,"Morris Avenue",,"New York","United States",10468,"2410, Morris Avenue, West Bronx, Bronx, Bronx County, New York, United States, 10468"
40.83863747432137,-73.91882305176792,"1320a Jerome Ave, Bronx, NY 10452, USA",1320a,"Jerome Avenue",,"New York","United States",10452,"1320a, Jerome Avenue, West Bronx, Bronx, Bronx County, New York, United States, 10452, 3316"
40.82774747059282,-73.89923737571957,"818 Home St, Bronx, NY 10459, USA",818,"Home Street",,"New York","United States",10459,"818, Home Street, West Bronx, Bronx, Bronx County, New York, United States, 10459"
40.86573192118368,-73.84718612479476,"2701-2715 Fish Ave, Bronx, NY 10469, USA",2701-2715,"Fish Avenue",,"New York","United States",10469,"2701-2715, Fish Avenue, East Bronx, Bronx, Bronx County, New York, United States, 10469, 5518"
40.79924066524125,-73.93303307996598,"2366 1st Avenue, New York, NY 10035, USA",2366,"1st Avenue","New York","New York","United States",10035,"2366, 1st Avenue, East Harlem, Manhattan, New York, New York County, New York, United States, 10035"
40.79683383672962,-73.96461619388377,"851-865 Columbus Ave, New York, NY 10025, USA",851-865,"Columbus Avenue","New York","New York","United States",10025,"851-865, Columbus Avenue, Upper West Side, Manhattan, New York, New York County, New York, United States, 10025"
40.580808207328616,-73.941236938102,"1390-1398 Shore Blvd, Brooklyn, NY 11235, USA",1390-1398,"Shore Boulevard",,"New York","United States",11235,"1390-1398, Shore Boulevard, Manhattan Beach, Brooklyn, Kings County, New York, United States, 11235, 3036"
40.580808207328616,-73.941236938102,"1390-1398 Shore Blvd, Brooklyn, NY 11235, USA",1390-1398,"Shore Boulevard",,"New York","United States",11235,"1390-1398, Shore Boulevard, Manhattan Beach, Brooklyn, Kings County, New York, United States, 11235, 3036"
40.70138190511597,-73.95509152668554,"75 Lynch St, Brooklyn, NY 11206, USA",75,"Lynch Street",,"New York","United States",11206,"75, Lynch Street, Williamsburg, Brooklyn, Kings County, New York, United States, 11206"
40.898116334717805,-73.8512244348011,"1737 Nereid Ave, Bronx, NY 10466, USA",1737,"Nereid Avenue",,"New York","United States",10466,"1737, Nereid Avenue, East Bronx, Bronx, Bronx County, New York, United States, 10466, 1211"
40.74245732218813,-73.86423876117505,"98-1-98-3 50th Ave, Corona, NY 11368, USA",98-1-98-3,"50th Avenue",,"New York","United States",11368,"98-1-98-3, 50th Avenue, Corona, Queens, Queens County, New York, United States, 11368"
40.69056061188007,-73.81409194285082,"132-2 Liberty Ave, South Richmond Hill, NY 11419, USA",132-2,"Liberty Avenue",,"New York","United States",11419,"132-2, Liberty Avenue, South Richmond Hill, Queens, Queens County, New York, United States, 11419"
40.75922685404618,-73.9827422211332,"129 W 48th St, New York, NY 10036, USA",129,"West 48th Street","New York","New York","United States",10036,"129, West 48th Street, Midtown, Manhattan, New York, New York County, New York, United States, 10036, 1523"
40.812278326322655,-73.9496412438818,"2395 Frederick Douglass Blvd, New York, NY 10027, USA",2395,"Frederick Douglass Boulevard","New York","New York","United States",10027,"2395, Frederick Douglass Boulevard, Upper Manhattan, Manhattan, New York, New York County, New York, United States, 10027"
40.769401496717876,-73.92243101174579,"27-16 Newtown Ave, Astoria, NY 11102, USA",27-16,"Newtown Avenue",,"New York","United States",11102,"27-16, Newtown Avenue, Astoria, Queens, Queens County, New York, United States, 11102"
40.805729523018485,-73.9385423529129,"100 E 126th St, New York, NY 10035, USA",100,"East 126th Street","New York","New York","United States",10035,"100, East 126th Street, East Harlem, Manhattan, New York, New York County, New York, United States, 10035"
40.59878712871429,-73.93695754768011,"3034-3042 Avenue V, Brooklyn, NY 11229, USA",3034-3042,"Avenue V",,"New York","United States",11229,"3034-3042, Avenue V, Sheepshead Bay, Brooklyn, Kings County, New York, United States, 11229"
40.80175375791679,-73.93120289689519,"300-398 Dr Martin Luther King Jr Blvd, New York, NY 10035, USA",300-398,"Doctor Martin Luther King Junior Boulevard","New York","New York","United States",10035,"300-398, Doctor Martin Luther King Junior Boulevard, Upper Manhattan, Manhattan, New York, New York County, New York, United States, 10035"
40.54947927751517,-74.14932348215387,"16 Locust Pl, Staten Island, NY 10308, USA",16,"Locust Place",,"New York","United States",10308,"16, Locust Place, Great Kills, Staten Island, Richmond County, New York, United States, 10308, 2807"
40.860266101538265,-73.90163194510812,"51 E 184th St, Bronx, NY 10468, USA",51,"East 184th Street",,"New York","United States",10468,"51, East 184th Street, West Bronx, Bronx, Bronx County, New York, United States, 10468, 6501"
40.860266101538265,-73.90163194510812,"51 E 184th St, Bronx, NY 10468, USA",51,"East 184th Street",,"New York","United States",10468,"51, East 184th Street, West Bronx, Bronx, Bronx County, New York, United States, 10468, 6501"
40.59673521240838,-74.07044031421718,"312 McClean Ave, Staten Island, NY 10305, USA",312,"McClean Avenue",,"New York","United States",10305,"312, McClean Avenue, Arrochar, Staten Island, Richmond County, New York, United States, 10305, 4457"
40.701636939460094,-73.9422664944153,"18 Debevoise St, Brooklyn, NY 11206, USA",18,"Debevoise Street",,"New York","United States",11206,"18, Debevoise Street, Williamsburg, Brooklyn, Kings County, New York, United States, 11206, 4194"
40.701636939460094,-73.9422664944153,"18 Debevoise St, Brooklyn, NY 11206, USA",18,"Debevoise Street",,"New York","United States",11206,"18, Debevoise Street, Williamsburg, Brooklyn, Kings County, New York, United States, 11206, 4194"
40.701636939460094,-73.9422664944153,"18 Debevoise St, Brooklyn, NY 11206, USA",18,"Debevoise Street",,"New York","United States",11206,"18, Debevoise Street, Williamsburg, Brooklyn, Kings County, New York, United States, 11206, 4194"
40.8141815662255,-73.91073888981845,"554-560 Cauldwell Ave, Bronx, NY 10455, USA",554-560,"Cauldwell Avenue",,"New York","United States",10455,"554-560, Cauldwell Avenue, West Bronx, Bronx, Bronx County, New York, United States, 10455"
40.64502905554918,-73.91997749142436,"Clarendon Rd, Brooklyn, NY 11236, USA",,"Clarendon Road",,"New York","United States",11236,"Clarendon Road, East Flatbush, Brooklyn, Kings County, New York, United States, 11236"
40.64502905554918,-73.91997749142436,"Clarendon Rd, Brooklyn, NY 11236, USA",,"Clarendon Road",,"New York","United States",11236,"Clarendon Road, East Flatbush, Brooklyn, Kings County, New York, United States, 11236"
40.82243609883445,-73.91978583206524,"3040-3050 Park Ave, Bronx, NY 10451, USA",3040-3050,"Park Avenue",,"New York","United States",10451,"3040-3050, Park Avenue, West Bronx, Bronx, Bronx County, New York, United States, 10451"
40.61004892193211,-73.98539194030923,"7118 Bay Pkwy, Brooklyn, NY 11204, USA",7118,"Bay Parkway",,"New York","United States",11204,"7118, Bay Parkway, Bensonhurst, Brooklyn, Kings County, New York, United States, 11204"
40.59597028992131,-74.06899557269423,"41 Arthur Ave, Staten Island, NY 10305, USA",41,"Arthur Avenue",,"New York","United States",10305,"41, Arthur Avenue, Arrochar, Staten Island, Richmond County, New York, United States, 10305"
40.81640579174387,-73.90511806140188,"690 Tinton Ave, Bronx, NY 10455, USA",690,"Tinton Avenue",,"New York","United States",10455,"690, Tinton Avenue, West Bronx, Bronx, Bronx County, New York, United States, 10455"
40.80543010155753,-73.916345871291,"614-618 E 137th St, Bronx, NY 10454, USA",614-618,"East 137th Street",,"New York","United States",10454,"614-618, East 137th Street, West Bronx, Bronx, Bronx County, New York, United States, 10454"
40.870282710697765,-73.86721021670552,"3000 White Plains Rd, Bronx, NY 10467, USA",3000,"White Plains Road",,"New York","United States",10467,"3000, White Plains Road, East Bronx, Bronx, Bronx County, New York, United States, 10467, 8124"
40.870282710697765,-73.86721021670552,"3000 White Plains Rd, Bronx, NY 10467, USA",3000,"White Plains Road",,"New York","United States",10467,"3000, White Plains Road, East Bronx, Bronx, Bronx County, New York, United States, 10467, 8124"
40.64437362187467,-73.97569476065361,"422 Church Ave, Brooklyn, NY 11218, USA",422,"Church Avenue",,"New York","United States",11218,"422, Church Avenue, Kensington, Brooklyn, Kings County, New York, United States, 11218"
40.76265365860387,-73.9335896839328,"2115 34th Ave, Astoria, NY 11106, USA",2115,"34th Avenue",,"New York","United States",11106,"2115, 34th Avenue, Astoria, Queens, Queens County, New York, United States, 11106"
40.804375769710255,-73.93742023722204,"140 Dr Martin Luther King Jr Blvd, New York, NY 10035, USA",140,"Doctor Martin Luther King Junior Boulevard","New York","New York","United States",10035,"140, Doctor Martin Luther King Junior Boulevard, Upper Manhattan, Manhattan, New York, New York County, New York, United States, 10035, 1722"
40.683782990389716,-73.7897298779221,"116-1 155th St, Jamaica, NY 11434, USA",116-1,"155th Street",,"New York","United States",11434,"116-1, 155th Street, Jamaica, Queens, Queens County, New York, United States, 11434"
40.690780108262004,-73.72727049160652,"117-32-117-40 Cross Island Pkwy, Jamaica, NY 11425, USA",117-32-117-40,"Cross Island Parkway",,"New York","United States",11425,"117-32-117-40, Cross Island Parkway, Jamaica, Queens, Queens County, New York, United States, 11425"
40.690780108262004,-73.72727049160652,"117-32-117-40 Cross Island Pkwy, Jamaica, NY 11425, USA",117-32-117-40,"Cross Island Parkway",,"New York","United States",11425,"117-32-117-40, Cross Island Parkway, Jamaica, Queens, Queens County, New York, United States, 11425"
40.690780108262004,-73.72727049160652,"117-32-117-40 Cross Island Pkwy, Jamaica, NY 11425, USA",117-32-117-40,"Cross Island Parkway",,"New York","United States",11425,"117-32-117-40, Cross Island Parkway, Jamaica, Queens, Queens County, New York, United States, 11425"
40.68078776699501,-73.91957404067053,"219 Howard Ave, Brooklyn, NY 11233, USA",219,"Howard Avenue",,"New York","United States",11233,"219, Howard Avenue, Bedford-Stuyvesant, Brooklyn, Kings County, New York, United States, 11233"
40.66274522651824,-73.92193147108823,"163 Rockaway Pkwy, Brooklyn, NY 11212, USA",163,"Rockaway Parkway",,"New York","United States",11212,"163, Rockaway Parkway, East Flatbush, Brooklyn, Kings County, New York, United States, 11212"
40.66274522651824,-73.92193147108823,"163 Rockaway Pkwy, Brooklyn, NY 11212, USA",163,"Rockaway Parkway",,"New York","United States",11212,"163, Rockaway Parkway, East Flatbush, Brooklyn, Kings County, New York, United States, 11212"
40.66274522651824,-73.92193147108823,"163 Rockaway Pkwy, Brooklyn, NY 11212, USA",163,"Rockaway Parkway",,"New York","United States",11212,"163, Rockaway Parkway, East Flatbush, Brooklyn, Kings County, New York, United States, 11212"
40.65121160063884,-73.9589237185683,"862 Flatbush Ave, Brooklyn, NY 11226, USA",862,"Flatbush Avenue",,"New York","United States",11226,"862, Flatbush Avenue, Flatbush - Ditmas Park, Brooklyn, Kings County, New York, United States, 11226"
40.65121160063884,-73.9589237185683,"862 Flatbush Ave, Brooklyn, NY 11226, USA",862,"Flatbush Avenue",,"New York","United States",11226,"862, Flatbush Avenue, Flatbush - Ditmas Park, Brooklyn, Kings County, New York, United States, 11226"
40.72224252492442,-73.99523067923245,"219A Mott St, New York, NY 10012, USA",219A,"Mott Street","New York","New York","United States",10012,"219A, Mott Street, Lower Manhattan, Manhattan, New York, New York County, New York, United States, 10012"
40.823264014462076,-73.95276190334795,"600 W 140 St, New York, NY 10031, USA",600,"West 140 Street","New York","New York","United States",10031,"600, West 140 Street, Upper Manhattan, Manhattan, New York, New York County, New York, United States, 10031"
40.827686813819895,-73.8789736573728,"1151-1161 Elder Ave, Bronx, NY 10472, USA",1151-1161,"Elder Avenue",,"New York","United States",10472,"1151-1161, Elder Avenue, East Bronx, Bronx, Bronx County, New York, United States, 10472"
40.827686813819895,-73.8789736573728,"1151-1161 Elder Ave, Bronx, NY 10472, USA",1151-1161,"Elder Avenue",,"New York","United States",10472,"1151-1161, Elder Avenue, East Bronx, Bronx, Bronx County, New York, United States, 10472"
40.82910717634194,-73.8802610766378,"1209B Wheeler Ave, Bronx, NY 10472, USA",1209B,"Wheeler Avenue",,"New York","United States",10472,"1209B, Wheeler Avenue, East Bronx, Bronx, Bronx County, New York, United States, 10472"
40.82843278878286,-73.88104640162443,"1192 Evergreen Ave, Bronx, NY 10472, USA",1192,"Evergreen Avenue",,"New York","United States",10472,"1192, Evergreen Avenue, East Bronx, Bronx, Bronx County, New York, United States, 10472"
40.82910717634194,-73.8802610766378,"1209B Wheeler Ave, Bronx, NY 10472, USA",1209B,"Wheeler Avenue",,"New York","United States",10472,"1209B, Wheeler Avenue, East Bronx, Bronx, Bronx County, New York, United States, 10472"
40.82910717634194,-73.8802610766378,"1209B Wheeler Ave, Bronx, NY 10472, USA",1209B,"Wheeler Avenue",,"New York","United States",10472,"1209B, Wheeler Avenue, East Bronx, Bronx, Bronx County, New York, United States, 10472"
40.82910717634194,-73.8802610766378,"1209B Wheeler Ave, Bronx, NY 10472, USA",1209B,"Wheeler Avenue",,"New York","United States",10472,"1209B, Wheeler Avenue, East Bronx, Bronx, Bronx County, New York, United States, 10472"
40.673355066454924,-73.91594554574124,"1553 St Marks Ave, Brooklyn, NY 11233, USA",1553,"Saint Marks Avenue",,"New York","United States",11233,"1553, Saint Marks Avenue, Brownsville, Brooklyn, Kings County, New York, United States, 11233, 4723"
40.81859451966549,-73.900024391151,"901-911 Longwood Ave, Bronx, NY 10459, USA",901-911,"Longwood Avenue",,"New York","United States",10459,"901-911, Longwood Avenue, West Bronx, Bronx, Bronx County, New York, United States, 10459"
40.85007991317072,-73.93585911013601,"4259 Broadway, New York, NY 10033, USA",4259,Broadway,"New York","New York","United States",10033,"4259, Broadway, Upper Manhattan, Manhattan, New York, New York County, New York, United States, 10033, 3731"
40.85007991317072,-73.93585911013601,"4259 Broadway, New York, NY 10033, USA",4259,Broadway,"New York","New York","United States",10033,"4259, Broadway, Upper Manhattan, Manhattan, New York, New York County, New York, United States, 10033, 3731"
40.7518365511247,-73.9748723430116,"129-141 E 43rd St, New York, NY 10017, USA",129-141,"East 43rd Street","New York","New York","United States",10017,"129-141, East 43rd Street, Midtown, Manhattan, New York, New York County, New York, United States, 10017"
40.75461133469531,-73.87666646407045,"3400 91st St, Jackson Heights, NY 11372, USA",3400,"91st Street",,"New York","United States",11372,"3400, 91st Street, Jackson Heights, Queens, Queens County, New York, United States, 11372"
40.80476870341933,-73.96416768392683,"520-522 W 112th St, New York, NY 10025, USA",520-522,"West 112th Street","New York","New York","United States",10025,"520-522, West 112th Street, Upper Manhattan, Manhattan, New York, New York County, New York, United States, 10025"
40.80476870341933,-73.96416768392683,"520-522 W 112th St, New York, NY 10025, USA",520-522,"West 112th Street","New York","New York","United States",10025,"520-522, West 112th Street, Upper Manhattan, Manhattan, New York, New York County, New York, United States, 10025"
40.80476870341933,-73.96416768392683,"520-522 W 112th St, New York, NY 10025, USA",520-522,"West 112th Street","New York","New York","United States",10025,"520-522, West 112th Street, Upper Manhattan, Manhattan, New York, New York County, New York, United States, 10025"
40.80476870341933,-73.96416768392683,"520-522 W 112th St, New York, NY 10025, USA",520-522,"West 112th Street","New York","New York","United States",10025,"520-522, West 112th Street, Upper Manhattan, Manhattan, New York, New York County, New York, United States, 10025"
40.68359984192421,-73.88559538840981,"1 Elton St, Brooklyn, NY 11207, USA",1,"Elton Street",,"New York","United States",11207,"1, Elton Street, Cypress Hills, Brooklyn, Kings County, New York, United States, 11207"
40.68359984192421,-73.88559538840981,"1 Elton St, Brooklyn, NY 11207, USA",1,"Elton Street",,"New York","United States",11207,"1, Elton Street, Cypress Hills, Brooklyn, Kings County, New York, United States, 11207"
40.68359984192421,-73.88559538840981,"1 Elton St, Brooklyn, NY 11207, USA",1,"Elton Street",,"New York","United States",11207,"1, Elton Street, Cypress Hills, Brooklyn, Kings County, New York, United States, 11207"
40.867312492875996,-73.86921553591574,"2851 Barker Ave, Bronx, NY 10467, USA",2851,"Barker Avenue",,"New York","United States",10467,"2851, Barker Avenue, East Bronx, Bronx, Bronx County, New York, United States, 10467"
40.71430460265127,-73.99363685332845,"81-83 Division St, New York, NY 10002, USA",81-83,"Division Street","New York","New York","United States",10002,"81-83, Division Street, Lower Manhattan, Manhattan, New York, New York County, New York, United States, 10002"
40.663813610070285,-73.93159748111663,"432 Utica Ave, Brooklyn, NY 11213, USA",432,"Utica Avenue",,"New York","United States",11213,"432, Utica Avenue, Crown Heights, Brooklyn, Kings County, New York, United States, 11213, 5903"
40.71121797308989,-73.9404222025181,"127 Bushwick Ave, Brooklyn, NY 11206, USA",127,"Bushwick Avenue",,"New York","United States",11206,"127, Bushwick Avenue, Brooklyn, Kings County, New York, United States, 11206"
40.71121797308989,-73.9404222025181,"127 Bushwick Ave, Brooklyn, NY 11206, USA",127,"Bushwick Avenue",,"New York","United States",11206,"127, Bushwick Avenue, Brooklyn, Kings County, New York, United States, 11206"
40.62866105356052,-74.15167301245971,"280 Dixon Ave, Staten Island, NY 10303, USA",280,"Dixon Avenue",,"New York","United States",10303,"280, Dixon Avenue, Mariners Harbor, Staten Island, Richmond County, New York, United States, 10303"
40.857288383290275,-73.92804379722739,"2-98 Fort George Hill, New York, NY 10040, USA",2-98,"Fort George Hill","New York","New York","United States",10040,"2-98, Fort George Hill, Upper Manhattan, Manhattan, New York, New York County, New York, United States, 10040"
40.857288383290275,-73.92804379722739,"2-98 Fort George Hill, New York, NY 10040, USA",2-98,"Fort George Hill","New York","New York","United States",10040,"2-98, Fort George Hill, Upper Manhattan, Manhattan, New York, New York County, New York, United States, 10040"
40.816484804190374,-73.90778055766869,"668-682 Westchester Ave, Bronx, NY 10455, USA",668-682,"Westchester Avenue",,"New York","United States",10455,"668-682, Westchester Avenue, West Bronx, Bronx, Bronx County, New York, United States, 10455"
40.797917765510576,-73.96384631347463,"100-110 W 104th St, New York, NY 10025, USA",100-110,"West 104th Street","New York","New York","United States",10025,"100-110, West 104th Street, Upper West Side, Manhattan, New York, New York County, New York, United States, 10025"
40.60089731323441,-74.17672765199393,"3575 Victory Blvd, Staten Island, NY 10314, USA",3575,"Victory Boulevard",,"New York","United States",10314,"3575, Victory Boulevard, Bloomfield, Staten Island, Richmond County, New York, United States, 10314, 6722"
40.64204864446664,-74.0753274100185,"5 Bay St, Staten Island, NY 10301, USA",5,"Bay Street",,"New York","United States",10301,"5, Bay Street, St. George, Staten Island, Richmond County, New York, United States, 10301"
40.69249219161525,-73.8170543394647,"129-30-129-98 101st Ave, South Richmond Hill, NY 11419, USA",129-30-129-98,"101st Avenue",,"New York","United States",11419,"129-30-129-98, 101st Avenue, South Richmond Hill, Queens, Queens County, New York, United States, 11419, 1518"
40.74763075718859,-73.88393715438816,"4011-4015 82nd St, Elmhurst, NY 11373, USA",4011-4015,"82nd Street",,"New York","United States",11373,"4011-4015, 82nd Street, Elmhurst, Queens, Queens County, New York, United States, 11373"
40.90119874152949,-73.85564881847958,"4503 Carpenter Ave, Bronx, NY 10470, USA",4503,"Carpenter Avenue",,"New York","United States",10470,"4503, Carpenter Avenue, East Bronx, Bronx, Bronx County, New York, United States, 10470, 1419"
40.60253439857317,-73.9932009584674,"8498 Bay Pkwy, Brooklyn, NY 11214, USA",8498,"Bay Parkway",,"New York","United States",11214,"8498, Bay Parkway, Bensonhurst, Brooklyn, Kings County, New York, United States, 11214"
40.60253439857317,-73.9932009584674,"8498 Bay Pkwy, Brooklyn, NY 11214, USA",8498,"Bay Parkway",,"New York","United States",11214,"8498, Bay Parkway, Bensonhurst, Brooklyn, Kings County, New York, United States, 11214"
40.60253439857317,-73.9932009584674,"8498 Bay Pkwy, Brooklyn, NY 11214, USA",8498,"Bay Parkway",,"New York","United States",11214,"8498, Bay Parkway, Bensonhurst, Brooklyn, Kings County, New York, United States, 11214"
40.60253439857317,-73.9932009584674,"8498 Bay Pkwy, Brooklyn, NY 11214, USA",8498,"Bay Parkway",,"New York","United States",11214,"8498, Bay Parkway, Bensonhurst, Brooklyn, Kings County, New York, United States, 11214"
40.72231473579675,-73.84154068290752,"70-98 110th St, Forest Hills, NY 11375, USA",70-98,"110th Street",,"New York","United States",11375,"70-98, 110th Street, Forest Hills, Queens, Queens County, New York, United States, 11375"
40.6820579901663,-73.98292804410788,"130 3rd Ave, Brooklyn, NY 11217, USA",130,"3rd Avenue",,"New York","United States",11217,"130, 3rd Avenue, Boerum Hill, Brooklyn, Kings County, New York, United States, 11217"
40.6820579901663,-73.98292804410788,"130 3rd Ave, Brooklyn, NY 11217, USA",130,"3rd Avenue",,"New York","United States",11217,"130, 3rd Avenue, Boerum Hill, Brooklyn, Kings County, New York, United States, 11217"
40.6820579901663,-73.98292804410788,"130 3rd Ave, Brooklyn, NY 11217, USA",130,"3rd Avenue",,"New York","United States",11217,"130, 3rd Avenue, Boerum Hill, Brooklyn, Kings County, New York, United States, 11217"
40.56050358319475,-74.18098270030583,"40 Ilyssa Way, Staten Island, NY 10312, USA",40,"Ilyssa Way",,"New York","United States",10312,"40, Ilyssa Way, Arden Heights, Staten Island, Richmond County, New York, United States, 10312, 1358"
40.85591973088033,-73.91718970947427,"1962 Cedar Ave, Bronx, NY 10453, USA",1962,"Cedar Avenue",,"New York","United States",10453,"1962, Cedar Avenue, West Bronx, Bronx, Bronx County, New York, United States, 10453, 2702"
40.81254237902593,-73.9212319395779,"377 E 143rd St, Bronx, NY 10454, USA",377,"East 143rd Street",,"New York","United States",10454,"377, East 143rd Street, West Bronx, Bronx, Bronx County, New York, United States, 10454"
40.71754895307648,-74.00552293184026,"66 Leonard St, New York, NY 10013, USA",66,"Leonard Street","New York","New York","United States",10013,"66, Leonard Street, Lower Manhattan, Manhattan, New York, New York County, New York, United States, 10013"
40.8342565355683,-73.90403378099644,"3663 Third Ave, Bronx, NY 10456, USA",3663,"Third Avenue",,"New York","United States",10456,"3663, Third Avenue, West Bronx, Bronx, Bronx County, New York, United States, 10456"
40.786235870583845,-73.94855593746514,"1761-1769 3rd Ave, New York, NY 10029, USA",1761-1769,"3rd Avenue","New York","New York","United States",10029,"1761-1769, 3rd Avenue, East Harlem, Manhattan, New York, New York County, New York, United States, 10029"
40.62689074169177,-74.12666399512993,"151-161 Greenleaf Ave, Staten Island, NY 10310, USA",151-161,"Greenleaf Avenue",,"New York","United States",10310,"151-161, Greenleaf Avenue, Staten Island, Richmond County, New York, United States, 10310, 2603"
40.64903956495113,-74.00174418953006,"614 40th St, Brooklyn, NY 11232, USA",614,"40th Street",,"New York","United States",11232,"614, 40th Street, Sunset Park, Brooklyn, Kings County, New York, United States, 11232"
40.573511076955945,-73.99929087437033,"2963 Robert ""Mr. Lou"" Williams Way, Brooklyn, NY 11224, USA",2963,"Robert ""Mr. Lou"" Williams Way",,"New York","United States",11224,"2963, Robert ""Mr. Lou"" Williams Way, Coney Island, Brooklyn, Kings County, New York, United States, 11224, 1401"
40.66252418022887,-73.84070231096041,"9301 157th Ave, Howard Beach, NY 11414, USA",9301,"157th Avenue",,"New York","United States",11414,"9301, 157th Avenue, Howard Beach, Queens, Queens County, New York, United States, 11414"
40.83751111652351,-73.90658773346502,"1432-1450 Webster Ave, Bronx, NY 10456, USA",1432-1450,"Webster Avenue",,"New York","United States",10456,"1432-1450, Webster Avenue, West Bronx, Bronx, Bronx County, New York, United States, 10456"
40.67380562251802,-74.00477306708821,"151-181 Lorraine St, Brooklyn, NY 11231, USA",151-181,"Lorraine Street",,"New York","United States",11231,"151-181, Lorraine Street, Red Hook, Brooklyn, Kings County, New York, United States, 11231, 3164"
40.84028887290424,-73.92146291355864,"1340 Edward L Grant Hwy, Bronx, NY 10452, USA",1340,"Edward L Grant Highway",,"New York","United States",10452,"1340, Edward L Grant Highway, West Bronx, Bronx, Bronx County, New York, United States, 10452, 3144"
40.83572502808314,-73.84794167250303,"2300-2348 Westchester Ave, Bronx, NY 10462, USA",2300-2348,"Westchester Avenue",,"New York","United States",10462,"2300-2348, Westchester Avenue, East Bronx, Bronx, Bronx County, New York, United States, 10462"
40.898449617271176,-73.85429832975593,"686-698 Nereid Ave, Bronx, NY 10470, USA",686-698,"Nereid Avenue",,"New York","United States",10470,"686-698, Nereid Avenue, East Bronx, Bronx, Bronx County, New York, United States, 10470, 1529"
40.76668726276926,-73.89212767571094,"Astoria Blvd N, East Elmhurst, NY 11370, USA",,"Astoria Boulevard North",,"New York","United States",11370,"Astoria Boulevard North, East Elmhurst, Queens, Queens County, New York, United States, 11370"
40.674261289422326,-74.0038610194688,"159-161 Bush St, Brooklyn, NY 11231, USA",159-161,"Bush Street",,"New York","United States",11231,"159-161, Bush Street, Red Hook, Brooklyn, Kings County, New York, United States, 11231"
40.814104882666705,-73.94085393110794,"100 W 135th St, New York, NY 10037, USA",100,"West 135th Street","New York","New York","United States",10037,"100, West 135th Street, Upper Manhattan, Manhattan, New York, New York County, New York, United States, 10037"
40.75066114703777,-73.98777926681213,"104 W 35th St, New York, NY 10018, USA",104,"West 35th Street","New York","New York","United States",10018,"104, West 35th Street, Midtown, Manhattan, New York, New York County, New York, United States, 10018"
40.75066114703777,-73.98777926681213,"104 W 35th St, New York, NY 10018, USA",104,"West 35th Street","New York","New York","United States",10018,"104, West 35th Street, Midtown, Manhattan, New York, New York County, New York, United States, 10018"
40.75066114703777,-73.98777926681213,"104 W 35th St, New York, NY 10018, USA",104,"West 35th Street","New York","New York","United States",10018,"104, West 35th Street, Midtown, Manhattan, New York, New York County, New York, United States, 10018"
40.70384149237233,-73.7303296182007,"112-99 227th St, Queens Village, NY 11429, USA",112-99,"227th Street",,"New York","United States",11429,"112-99, 227th Street, Queens Village, Queens, Queens County, New York, United States, 11429, 2744"
40.69776761341076,-73.94387466284417,"196 Throop Ave, Brooklyn, NY 11206, USA",196,"Throop Avenue",,"New York","United States",11206,"196, Throop Avenue, Bedford-Stuyvesant, Brooklyn, Kings County, New York, United States, 11206"
40.69776761341076,-73.94387466284417,"196 Throop Ave, Brooklyn, NY 11206, USA",196,"Throop Avenue",,"New York","United States",11206,"196, Throop Avenue, Bedford-Stuyvesant, Brooklyn, Kings County, New York, United States, 11206"
40.69776761341076,-73.94387466284417,"196 Throop Ave, Brooklyn, NY 11206, USA",196,"Throop Avenue",,"New York","United States",11206,"196, Throop Avenue, Bedford-Stuyvesant, Brooklyn, Kings County, New York, United States, 11206"
40.70384149237233,-73.7303296182007,"112-99 227th St, Queens Village, NY 11429, USA",112-99,"227th Street",,"New York","United States",11429,"112-99, 227th Street, Queens Village, Queens, Queens County, New York, United States, 11429, 2744"
40.825695143596576,-73.90661516095976,"571-587 Judge Hansel L. McGee Pl, Bronx, NY 10456, USA",571-587,"Judge Hansel L. McGee Place",,"New York","United States",10456,"571-587, Judge Hansel L. McGee Place, West Bronx, Bronx, Bronx County, New York, United States, 10456"
40.811329845515225,-73.92216539601482,"376-380 E 141st St, Bronx, NY 10454, USA",376-380,"East 141st Street",,"New York","United States",10454,"376-380, East 141st Street, West Bronx, Bronx, Bronx County, New York, United States, 10454"
40.59972837183506,-73.76386898661914,"28-98 Beach Channel Dr, Far Rockaway, NY 11691, USA",28-98,"Beach Channel Drive",,"New York","United States",11691,"28-98, Beach Channel Drive, Far Rockaway, Queens, Queens County, New York, United States, 11691"
40.59972837183506,-73.76386898661914,"28-98 Beach Channel Dr, Far Rockaway, NY 11691, USA",28-98,"Beach Channel Drive",,"New York","United States",11691,"28-98, Beach Channel Drive, Far Rockaway, Queens, Queens County, New York, United States, 11691"
40.811329845515225,-73.92216539601482,"376-380 E 141st St, Bronx, NY 10454, USA",376-380,"East 141st Street",,"New York","United States",10454,"376-380, East 141st Street, West Bronx, Bronx, Bronx County, New York, United States, 10454"
40.81957964854584,-73.88784370688737,"887 Faile St, Bronx, NY 10474, USA",887,"Faile Street",,"New York","United States",10474,"887, Faile Street, West Bronx, Bronx, Bronx County, New York, United States, 10474, 4721"
40.83979713996456,-73.84306425838369,"136 Westchester Ave, Bronx, NY 10461, USA",136,"Westchester Avenue",,"New York","United States",10461,"136, Westchester Avenue, East Bronx, Bronx, Bronx County, New York, United States, 10461"
40.634590909652594,-73.93823878943294,"837 E 40th St, Brooklyn, NY 11210, USA",837,"East 40th Street",,"New York","United States",11210,"837, East 40th Street, East Flatbush, Brooklyn, Kings County, New York, United States, 11210, 2010"
40.65279589555037,-73.94687490274526,"860 New York Ave, Brooklyn, NY 11203, USA",860,"New York Avenue",,"New York","United States",11203,"860, New York Avenue, East Flatbush, Brooklyn, Kings County, New York, United States, 11203, 2721"
40.675573343011145,-73.80370765666753,"122-0 135th St, South Ozone Park, NY 11420, USA",122-0,"135th Street",,"New York","United States",11420,"122-0, 135th Street, South Ozone Park, Queens, Queens County, New York, United States, 11420"
40.675573343011145,-73.80370765666753,"122-0 135th St, South Ozone Park, NY 11420, USA",122-0,"135th Street",,"New York","United States",11420,"122-0, 135th Street, South Ozone Park, Queens, Queens County, New York, United States, 11420"
40.651876505092034,-73.90455199759951,"10099 Avenue D, Brooklyn, NY 11236, USA",10099,"Avenue D",,"New York","United States",11236,"10099, Avenue D, Canarsie, Brooklyn, Kings County, New York, United States, 11236, 1900"
40.63620737007307,-73.9489850577532,"616 E 29th St, Brooklyn, NY 11210, USA",616,"East 29th Street",,"New York","United States",11210,"616, East 29th Street, East Flatbush, Brooklyn, Kings County, New York, United States, 11210"
40.674521228533905,-73.80320243651302,"13415-13501 Rockaway Blvd, South Ozone Park, NY 11420, USA",13415-13501,"Rockaway Boulevard",,"New York","United States",11420,"13415-13501, Rockaway Boulevard, South Ozone Park, Queens, Queens County, New York, United States, 11420"
40.63184964031705,-74.11168227072645,"406-408 Bement Ave, Staten Island, NY 10310, USA",406-408,"Bement Avenue",,"New York","United States",10310,"406-408, Bement Avenue, West Brighton, Staten Island, Richmond County, New York, United States, 10310, 2126"
40.63184964031705,-74.11168227072645,"406-408 Bement Ave, Staten Island, NY 10310, USA",406-408,"Bement Avenue",,"New York","United States",10310,"406-408, Bement Avenue, West Brighton, Staten Island, Richmond County, New York, United States, 10310, 2126"
40.63184964031705,-74.11168227072645,"406-408 Bement Ave, Staten Island, NY 10310, USA",406-408,"Bement Avenue",,"New York","United States",10310,"406-408, Bement Avenue, West Brighton, Staten Island, Richmond County, New York, United States, 10310, 2126"
40.674521228533905,-73.80320243651302,"13415-13501 Rockaway Blvd, South Ozone Park, NY 11420, USA",13415-13501,"Rockaway Boulevard",,"New York","United States",11420,"13415-13501, Rockaway Boulevard, South Ozone Park, Queens, Queens County, New York, United States, 11420"
40.66132947000258,-73.93140539283884,"489 Utica Ave, Brooklyn, NY 11203, USA",489,"Utica Avenue",,"New York","United States",11203,"489, Utica Avenue, East Flatbush, Brooklyn, Kings County, New York, United States, 11203, 1916"
40.818617531760935,-73.88916764362294,"1201 Seneca Ave, Bronx, NY 10474, USA",1201,"Seneca Avenue",,"New York","United States",10474,"1201, Seneca Avenue, West Bronx, Bronx, Bronx County, New York, United States, 10474"
40.834703902722495,-73.91825687787646,"136B E 167th St, Bronx, NY 10452, USA",136B,"East 167th Street",,"New York","United States",10452,"136B, East 167th Street, West Bronx, Bronx, Bronx County, New York, United States, 10452"
40.80543010155753,-73.916345871291,"614-618 E 137th St, Bronx, NY 10454, USA",614-618,"East 137th Street",,"New York","United States",10454,"614-618, East 137th Street, West Bronx, Bronx, Bronx County, New York, United States, 10454"
40.66322896168505,-73.93158005832001,"448 Utica Ave, Brooklyn, NY 11203, USA",448,"Utica Avenue",,"New York","United States",11203,"448, Utica Avenue, Brooklyn, Kings County, New York, United States, 11203"
40.670991334007375,-73.84434826056119,"90-1 Albert Rd, Ozone Park, NY 11417, USA",90-1,"Albert Road",,"New York","United States",11417,"90-1, Albert Road, Ozone Park, Queens, Queens County, New York, United States, 11417"
40.670991334007375,-73.84434826056119,"90-1 Albert Rd, Ozone Park, NY 11417, USA",90-1,"Albert Road",,"New York","United States",11417,"90-1, Albert Road, Ozone Park, Queens, Queens County, New York, United States, 11417"
40.6164351610789,-73.96758976853357,"1407 E 7th St, Brooklyn, NY 11230, USA",1407,"East 7th Street",,"New York","United States",11230,"1407, East 7th Street, Midwood, Brooklyn, Kings County, New York, United States, 11230"
40.8787553848613,-73.89961570742211,"3142 Heath Ave, Bronx, NY 10463, USA",3142,"Heath Avenue",,"New York","United States",10463,"3142, Heath Avenue, West Bronx, Bronx, Bronx County, New York, United States, 10463, 5860"
40.8787553848613,-73.89961570742211,"3142 Heath Ave, Bronx, NY 10463, USA",3142,"Heath Avenue",,"New York","United States",10463,"3142, Heath Avenue, West Bronx, Bronx, Bronx County, New York, United States, 10463, 5860"
40.66292644864389,-73.83786824972094,"95-19 157th Ave, Jamaica, NY 11414, USA",95-19,"157th Avenue",,"New York","United States",11414,"95-19, 157th Avenue, Jamaica, Queens, Queens County, New York, United States, 11414"
40.67648860691621,-73.8213199155299,"11701 Rockaway Blvd, South Ozone Park, NY 11420, USA",11701,"Rockaway Boulevard",,"New York","United States",11420,"11701, Rockaway Boulevard, South Ozone Park, Queens, Queens County, New York, United States, 11420"
40.81731433263238,-73.84448653421936,"500 Havemeyer Ave, Bronx, NY 10473, USA",500,"Havemeyer Avenue",,"New York","United States",10473,"500, Havemeyer Avenue, East Bronx, Bronx, Bronx County, New York, United States, 10473"
40.715333318372366,-73.75079060929058,"94-30 210th St, Queens Village, NY 11428, USA",94-30,"210th Street",,"New York","United States",11428,"94-30, 210th Street, Queens Village, Queens, Queens County, New York, United States, 11428, 1525"
40.869535683097894,-73.85760853899708,"3001 Hone Ave, Bronx, NY 10469, USA",3001,"Hone Avenue",,"New York","United States",10469,"3001, Hone Avenue, East Bronx, Bronx, Bronx County, New York, United States, 10469"
40.67310854821849,-73.99971160016923,"237 Bush St, Brooklyn, NY 11217, USA",237,"Bush Street",,"New York","United States",11217,"237, Bush Street, Red Hook, Brooklyn, Kings County, New York, United States, 11217"
40.637112384618845,-73.9536611297485,"2671 Bedford Ave, Brooklyn, NY 11210, USA",2671,"Bedford Avenue",,"New York","United States",11210,"2671, Bedford Avenue, Flatbush - Ditmas Park, Brooklyn, Kings County, New York, United States, 11210"
40.637112384618845,-73.9536611297485,"2671 Bedford Ave, Brooklyn, NY 11210, USA",2671,"Bedford Avenue",,"New York","United States",11210,"2671, Bedford Avenue, Flatbush - Ditmas Park, Brooklyn, Kings County, New York, United States, 11210"
40.637112384618845,-73.9536611297485,"2671 Bedford Ave, Brooklyn, NY 11210, USA",2671,"Bedford Avenue",,"New York","United States",11210,"2671, Bedford Avenue, Flatbush - Ditmas Park, Brooklyn, Kings County, New York, United States, 11210"
40.637112384618845,-73.9536611297485,"2671 Bedford Ave, Brooklyn, NY 11210, USA",2671,"Bedford Avenue",,"New York","United States",11210,"2671, Bedford Avenue, Flatbush - Ditmas Park, Brooklyn, Kings County, New York, United States, 11210"
40.827925967858114,-73.86449437052059,"1801 Watson Ave, Bronx, NY 10472, USA",1801,"Watson Avenue",,"New York","United States",10472,"1801, Watson Avenue, East Bronx, Bronx, Bronx County, New York, United States, 10472"
40.667624394976464,-73.8962855048179,"611 Blake Ave, Brooklyn, NY 11207, USA",611,"Blake Avenue",,"New York","United States",11207,"611, Blake Avenue, East New York, Brooklyn, Kings County, New York, United States, 11207"
40.694634915664714,-73.84851949160185,"973 Jamaica Ave, Woodhaven, NY 11421, USA",973,"Jamaica Avenue",,"New York","United States",11421,"973, Jamaica Avenue, Woodhaven, Queens, Queens County, New York, United States, 11421"
40.630211815826975,-74.16177486704981,"276 Lockman Ave, Staten Island, NY 10303, USA",276,"Lockman Avenue",,"New York","United States",10303,"276, Lockman Avenue, Mariners Harbor, Staten Island, Richmond County, New York, United States, 10303"
40.77564316511665,-73.96051503840833,"98 E 79th St, New York, NY 10075, USA",98,"East 79th Street","New York","New York","United States",10075,"98, East 79th Street, Upper East Side, Manhattan, New York, New York County, New York, United States, 10075"
40.61016251395676,-73.75012434231576,"12-50-12-52 Redfern Ave, Far Rockaway, NY 11691, USA",12-50-12-52,"Redfern Avenue",,"New York","United States",11691,"12-50-12-52, Redfern Avenue, Far Rockaway, Queens, Queens County, New York, United States, 11691"
40.639371296296346,-74.01626473312574,"6003 5th Ave, Brooklyn, NY 11220, USA",6003,"5th Avenue",,"New York","United States",11220,"6003, 5th Avenue, Sunset Park, Brooklyn, Kings County, New York, United States, 11220, 4011"
40.62826428717905,-73.99914979216035,"1299 61st St, Brooklyn, NY 11219, USA",1299,"61st Street",,"New York","United States",11219,"1299, 61st Street, Borough Park, Brooklyn, Kings County, New York, United States, 11219, 5303"
40.638650701666094,-73.95683802815604,"2200-2202 Newkirk Ave, Brooklyn, NY 11226, USA",2200-2202,"Newkirk Avenue",,"New York","United States",11226,"2200-2202, Newkirk Avenue, Flatbush - Ditmas Park, Brooklyn, Kings County, New York, United States, 11226, 7512"
40.73974623868233,-73.74996674730838,"76-2 Springfield Blvd, Oakland Gardens, NY 11364, USA",76-2,"Springfield Boulevard",,"New York","United States",11364,"76-2, Springfield Boulevard, Oakland Gardens, Queens, Queens County, New York, United States, 11364"
40.73974623868233,-73.74996674730838,"76-2 Springfield Blvd, Oakland Gardens, NY 11364, USA",76-2,"Springfield Boulevard",,"New York","United States",11364,"76-2, Springfield Boulevard, Oakland Gardens, Queens, Queens County, New York, United States, 11364"
40.73974623868233,-73.74996674730838,"76-2 Springfield Blvd, Oakland Gardens, NY 11364, USA",76-2,"Springfield Boulevard",,"New York","United States",11364,"76-2, Springfield Boulevard, Oakland Gardens, Queens, Queens County, New York, United States, 11364"
40.77949690046175,-73.9534934395462,"176 E 87th St, New York, NY 10128, USA",176,"East 87th Street","New York","New York","United States",10128,"176, East 87th Street, Upper East Side, Manhattan, New York, New York County, New York, United States, 10128, 2206"
40.859352380721695,-73.88977939793806,"2478 Washington Ave, Bronx, NY 10458, USA",2478,"Washington Avenue",,"New York","United States",10458,"2478, Washington Avenue, West Bronx, Bronx, Bronx County, New York, United States, 10458, 5812"
40.772990402516,-73.93367324626703,"5 Astoria Blvd, Astoria, NY 11102, USA",5,"Astoria Boulevard",,"New York","United States",11102,"5, Astoria Boulevard, Astoria, Queens, Queens County, New York, United States, 11102"
40.69391823068049,-73.90126793625247,"11-15 Wyckoff Ave, Ridgewood, NY 11385, USA",11-15,"Wyckoff Avenue",,"New York","United States",11385,"11-15, Wyckoff Avenue, Ridgewood, Queens, Queens County, New York, United States, 11385"
40.67472315036533,-73.85838137799165,"77-99 Sutter Ave, Ozone Park, NY 11417, USA",77-99,"Sutter Avenue",,"New York","United States",11417,"77-99, Sutter Avenue, Ozone Park, Queens, Queens County, New York, United States, 11417"
40.745595642202254,-73.90338918538404,"3958-3962 61st St, Woodside, NY 11377, USA",3958-3962,"61st Street",,"New York","United States",11377,"3958-3962, 61st Street, Woodside, Queens, Queens County, New York, United States, 11377"
40.86309034957872,-73.88945144108254,"384 E 194th St, Bronx, NY 10458, USA",384,"East 194th Street",,"New York","United States",10458,"384, East 194th Street, Fordham Manor, Bronx, Bronx County, New York, United States, 10458"
40.653447927769896,-73.92087198138893,"759-799 Ralph Ave, Brooklyn, NY 11236, USA",759-799,"Ralph Avenue",,"New York","United States",11236,"759-799, Ralph Avenue, East Flatbush, Brooklyn, Kings County, New York, United States, 11236"
40.79494588303454,-73.9660112733504,"801-805 Columbus Ave, New York, NY 10025, USA",801-805,"Columbus Avenue","New York","New York","United States",10025,"801-805, Columbus Avenue, Upper West Side, Manhattan, New York, New York County, New York, United States, 10025"
40.79843964454556,-73.96508126064755,"121 W 104th St, New York, NY 10025, USA",121,"West 104th Street","New York","New York","United States",10025,"121, West 104th Street, Upper West Side, Manhattan, New York, New York County, New York, United States, 10025"
40.79843964454556,-73.96508126064755,"121 W 104th St, New York, NY 10025, USA",121,"West 104th Street","New York","New York","United States",10025,"121, West 104th Street, Upper West Side, Manhattan, New York, New York County, New York, United States, 10025"
40.70042479731554,-73.94438815186399,"706 Flushing Ave, Brooklyn, NY 11206, USA",706,"Flushing Avenue",,"New York","United States",11206,"706, Flushing Avenue, Williamsburg, Brooklyn, Kings County, New York, United States, 11206, 5025"
40.68349707029765,-73.98985756112022,"221-225 Hoyt St, Brooklyn, NY 11217, USA",221-225,"Hoyt Street",,"New York","United States",11217,"221-225, Hoyt Street, Gowanus, Brooklyn, Kings County, New York, United States, 11217"
40.87258711488291,-73.88127475615228,"3028 Bainbridge Ave, Bronx, NY 10458, USA",3028,"Bainbridge Avenue",,"New York","United States",10458,"3028, Bainbridge Avenue, West Bronx, Bronx, Bronx County, New York, United States, 10458"
40.66020334280546,-73.91393289531985,"74-76 Riverdale Ave, Brooklyn, NY 11212, USA",74-76,"Riverdale Avenue",,"New York","United States",11212,"74-76, Riverdale Avenue, Brownsville, Brooklyn, Kings County, New York, United States, 11212, 4346"
40.696053016048126,-73.97951295883495,"24 Monument Walk, Brooklyn, NY 11205, USA",24,"Monument Walk",,"New York","United States",11205,"24, Monument Walk, Fort Greene, Brooklyn, Kings County, New York, United States, 11205"
40.696053016048126,-73.97951295883495,"24 Monument Walk, Brooklyn, NY 11205, USA",24,"Monument Walk",,"New York","United States",11205,"24, Monument Walk, Fort Greene, Brooklyn, Kings County, New York, United States, 11205"
40.7646167730447,-73.95832311500644,"400 E 67th St, New York, NY 10065, USA",400,"East 67th Street","New York","New York","United States",10065,"400, East 67th Street, Upper East Side, Manhattan, New York, New York County, New York, United States, 10065"
40.667081101270966,-73.8103220049382,"148 130th St, South Ozone Park, NY 11420, USA",148,"130th Street",,"New York","United States",11420,"148, 130th Street, South Ozone Park, Queens, Queens County, New York, United States, 11420"
